 2004  7 5 1809 36.9 L  57.505   7.139 15.0FFDNK  5 1.0 2.2LDNK 1.9CDNK        1
 GAP=198        2.16       9.7    30.2  0.0  0.2365E+03  0.0000E+00  0.0000E+00E
  146.7800   16.4800   75.7600     0  0.0   0.0        1      0.15    FOCMEC   F
   42.1000   15.5700   39.2500     0  0.0   0.0        0      0.22    FOCMEC  O3
 ACTION:SPL 14-12-11 12:04 OP:jh   STATUS:               ID:20040705180936 L   I
 2004  7 5 1809 35.3 L  57.485   6.883  0.0  BER  3 0.6 1.6LBER 1.5CBER        1
 2004-07-05-1809-44S.NNN___010                                                 6
 SYNT: MODEL--:     THICK        VP        VS      DENS        QP        QS    3
 SYNT: MODEL--:    16.000     6.200     3.584     2.600     0.000     0.000    3
 SYNT: MODEL--:    14.000     6.700     3.873     2.800     0.000     0.000    3
 SYNT: MODEL--:    30.000     8.050     4.653     3.000     0.000     0.000 N  3
 SYNT: MODEL--:    50.000     8.500     4.913     3.200     0.000     0.000    3
 SYNT: ST-D-RK:     146.8      16.5      75.8                                  3
 SYNT: DEPTH--:      15.0                                                      3
 SYNT: NPOINTS:      1024                                                      3
 SYNT: TIMES--:     TOTAL    60.000   INITIAL     0.000  SY-TRACE    60.000    3
 SYNT: BOUPAR-:     900.0      4000     0.005                                  3
 SYNT: PHASES-:        Pg        Sg       PmP       SmS                        3
 SYNT: DT-Tsou:     0.020      .002                                            3
 SYNT: REDVELO:    8.0000                                                      3
 SYNT: COMPON-:    RADIAL                                                      3
 SYNT: STAT-AT:  no                                                            3
 SYNT: NSTAT--:         1------------------------------------------------------3
 SYNT: NEW STAT:---------------------------------------------------------------3
 SYNT: STATION: SNARTS  Z  DISTANC:      94.2                                  3
 SYNT: STATION: SNART      AZIMUTH:       2.0 BAZIMUTH:     182.5              3
 STAT SP IPHASW D HRMM SECON CODA AMPLIT PERI AZIMU VELO AIN AR TRES W  DIS CAZ7
 MUD  HN ES   2   1810 20.17                              56    0.1110  170 132 
 BLS5 SZ EP       1810  7.08                              56   -0.7310  217 350 
 BLS5 SZ ES       1810 32.84                              56    2.4510  217 350 
 BLS5 SZ  IAML    1810 44.48        11.0 0.40                           217 350 
 KMY  SZ EP       1810  7.85   75                         56   -0.2510  220 331 
 KMY  SZ ES       1810 30.54                              56   -0.3510  220 331 
 KMY  SZ  IAML    1810 42.94         8.7 0.47                           220 331 
 HFS  SZ  PN      1810 41.8                               56    1.57 0  479  50 
 HFS  SZ  PG  4   1811 27.4                               90   38.10 0  479  50 
 HFS  SZ  SG  4   1811 29.5                               90   -12.7 0  479  50 
 MUD  HZ EP   2   1810  2.06                              56    0.2210  170 132 
 SNARTSZ EPG    D 18 9 51.33   56                         91   -0.6610 94.6   2 
 SNARTSZ ES       1810  2.23                              91   -0.7810 94.6   2 
 SNARTSZ  IAML    1810  3.54        16.6 0.31                          94.6   2 
                                                                                
