 1997  812 0814 24.1 L  59.818   6.646 12.0F TES 14 0.6 2.8LTES 2.7CTES 3.4LNAO1
 GAP= 99        2.71       4.5     6.6  0.0  0.2270E+01  0.0000E+00  0.0000E+00E
     183.7      64.3      16.1     0                                           F
 ACTION:SPL 14-12-11 12:04 OP:jh   STATUS:               ID:19970812081424 L   I
 1997-08-12-0811-20S.TEST__022                                                 6
 STAT SP IPHASW D HRMM SECON CODA AMPLIT PERI AZIMU VELO AIN AR TRES W  DIS CAZ7
 ODD1 SZ IP        814 27.58   93                        140    0.8710 10.5 354 
 ODD1 SZ ES        814 30.08                             140    1.4110 10.5 354 
 ODD1 SZ  IAML     814 30.61      2566.7  0.1                          10.5 354 
 BLS5 SZ IP        814 31.93   42                         70    0.3110 45.3 194 
 BLS5 SZ ES        814 37.65                              70    0.4310 45.3 194 
 BLS5 SZ  IAML     814 38.44      2174.1  0.1                          45.3 194 
 EGD  SZ IP        814 38.89  160                         70   -0.0510 93.8 303 
 EGD  SZ ES        814 49.36                              70   -0.5910 93.8 303 
 EGD  SZ  IAML     814 52.50       161.2  0.2                          93.8 303 
 BER  SZ EP        814 39.36  161   42.0  0.4             70    0.0310 96.4 311 
 BER  SZ ES        814 50.40                              70   -0.2310 96.4 311 
 BER  SZ  IAML     814 53.43        42.0  0.4                          96.4 311 
 KMY  SZ IP        814 39.87  162  552.8  0.2             70   -0.6210  104 230 
 KMY  SZ ES        814 51.46                              70   -1.2010  104 230 
 KMY  SZ  IAML     814 53.52       552.8  0.2                           104 230 
 ASK  SZ IP        814 41.34  171                         70    0.0410  109 313 
 ASK  SZ ES        814 54.08                              70    0.0110  109 313 
 HYA  SZ IP        814 47.65  224  435.4  0.5             50    0.4810  152 351 
 HYA  SZ ES        815  5.09                              50    0.8010  152 351 
 HYA  SZ  IAML     815  7.07       435.4  0.5                           152 351 
 KONO BZ EP        814 50.47  164  153.3  0.5             50    1.4310  167  95 
 KONO BZ ES        815 10.87                              50    3.3410  167  95 
 KONO BZ E         815 12.21       153.3  0.5                           167  95 
 SUE  SZ IP        814 49.19  183                         50   -0.5210  173 324 
 SUE  SZ EP        814 49.23                                            173 324 
 SUE  AZ E         814 49.99                                            173 324 
 SUE  SZ I         814 50.52                                            173 324 
 SUE  SZ ES        815  7.87                              50   -0.8210  173 324 
 SUE  SZ  IAML     815 12.71       294.0  0.4                           173 324 
 FOO  SZ EP   2    814 57.15  134                         50    1.97 5  217 337 
 FOO  SZ ES   2    815 21.66                              50    3.44 5  217 337 
 FOO  SZ  IAML     815 23.11       372.7  0.5                           217 337 
 NRA0 SZ  Pn       815  4.90  190             244.5  8.5  50 -6 0.6610  289  67 
 NRA0 SZ  Pg       815  9.20                  249.5  7.0  92 -1-1.5810  289  67 
 NRA0 SZ  Sn       815 34.65                              50    0.6710  289  67 
 NRA0 SZ  Lg       815 43.05                  249.6  3.9   0 -1-1.4010  289  67 
 MOL  SZ IP   2    815  6.39                              50   -0.44 5  310   9 
 MOL  AZ E         815 10.22                                            310   9 
 MOL  SZ I         815 10.90                                            310   9 
 MOL  SZ ESG  2    815 47.59                              92   -3.65 5  310   9 
 HFS  SZ  Pn      0815 17.68                  276.6 11.9  50  9 0.3310  395  82 
 HFS  SZ  Sn      0815 54.78                  261.7  3.6  50 -5-2.0210  395  82 
 HFS  SZ  Lg      0816 12.55                  269.5  3.4   0  2-1.2210  395  82 
 FIA0 SZ  Pn      0816 41.08                  260.8  8.4  50 -7-0.7010 1075  72 
 FIA0 SZ  Lg      0819 22.40                  270.4  4.1   0  1-0.2010 1075  72 
                                                                                
