 1994 10 4 1322 55.8 D  43.773 147.321 14.0  PDE672     7.3bPDE 8.1sPDE 7.9sBRK1
 1994 10 4 1322 55.8 D  43.773 147.321 14.0  PDE672     7.3bPDE 8.1sPDE 7.9sBRK1
 ACTION:SPL 14-12-11 12:04 OP:jh   STATUS:               ID:19941004132400     I
 1994-10-04-1324-00S.TEST__016                                                 6
 1994-10-04-1324-24S.TEST__016                                                 6
 STAT SP IPHASW D HRMM SECON CODA AMPLIT PERI AZIMU VELO AIN AR TRES W  DIS CAZ7
                                                                                
