 2007  928 1338 57.8 D  22.013 142.668260.0  PDE558 1.0 6.7bPDE                1
 GAP=157        9.83      64.3   113.3  0.0 -0.1738E+04  0.0000E+00  0.0000E+00E
     73.0   49.0    50.0                                                      OF
 ACTION:SPL 14-12-11 12:04 OP:jh   STATUS:               ID:20070928133643     I
  Date: 2007/ 9/28   Centroid Time: 13:39: 3.9 GMT                             3
  Lat=  21.94  Lon= 143.07                                                     3
  Depth=275.8   Half duration=13.2                                             3
  Centroid time minus hypocenter time:  4.4                                    3
  Moment Tensor: Expo=27  1.530 -1.880 0.349 -0.051 0.921 0.362                3
  Mw = 7.5    mb = 6.7    Ms = 7.4   Scalar Moment = 1.99e+27                  3
  Fault plane:  strike=73    dip=49   slip=50                                  3
  Fault plane:  strike=305    dip=55   slip=126                                3
 2007-09-28-1338-45S.NNN___072_MSEED                                           6
 STAT SP IPHASW D HRMM SECON CODA AMPLIT PERI AZIMU VELO AIN AR TRES W  DIS CAZ7
                                                                                
