 1995  822 0141  6.2 L  60.389   2.597 30.3  TES 13 0.7 2.3LTES 2.7CTES 2.2LNAO1
 GAP=273        3.07       8.2    19.3  8.2  0.3294E+01 -0.3419E+01  0.7072E+01E
     359.6      83.6      -7.7     1                                           F
 ACTION:SPL 14-12-11 12:04 OP:jh   STATUS:               ID:19950822014106     I
 1995-08-22-0140-29S.TEST__010                                                 6
 STAT SP IPHASW D HRMM SECON CODA AMPLIT PERI AZIMU VELO AIN AR TRES W  DIS CAZ7
 OSG  SZ IP     C  141 10.91   68                        144   -0.7410 19.5  52 
 OSG  SN ES        141 15.47                             144   -0.2410 19.5  52 
 SUE  SZ IP     C  141 26.10                              62   -0.1710  140  57 
 SUE  SZ EPG       141 28.27                              95    0.8510  140  57 
 SUE  SZ ESG       141 43.82                              95    0.6610  140  57 
 ASK  SZ IP     C  141 26.30  142                         62   -0.4510  143  85 
 ASK  SZ ESG       141 42.98                              94   -1.1210  143  85 
 ASK  SZ  IAML     141 44.34        64.3  0.2                           143  85 
 EGD  SZ EP     C  141 25.45  136                         62   -1.5910  146  94 
 EGD  SZ EPG       141 26.24                              94   -2.0610  146  94 
 EGD  SZ ES        141 41.53                              62   -0.9710  146  94 
 EGD  SZ  IAML     141 44.46        74.3  0.3                           146  94 
 BER  SZ EP     C  141 27.07  168                         62   -0.6110  151  89 
 BER  SZ ESG       141 43.35                              94   -2.5810  151  89 
 FOO  SZ EP     C  141 32.43  165                         62    0.0410  189  43 
 FOO  SZ ES        141 52.93                              62    1.1210  189  43 
 KMY  SZ IP     D  141 33.71  121                         62    0.1410  198 130 
 KMY  SZ EPG    D  141 36.92                              93    1.2410  198 130 
 KMY  SZ ES        141 53.73                              62   -0.1210  198 130 
 HYA  SZ EP     D  141 35.66  136                         62    0.1610  214  65 
 HYA  SZ EPG       141 39.42                              93    1.5510  214  65 
 HYA  SZ ES        141 57.76                              62    0.5510  214  65 
 ODD1 SZ EP   9 D  141 41.09  103                         62    3.51 0  230 102 
 ODD1 SZ EPG  4    141 44.73                              92    4.53 0  230 102 
 ODD1 SN ES        142  4.04                                   -0.3010  230 102 
 ODD1 SN ESG       142 10.42                                    1.5210  230 102 
 BLS5 SZ IP     D  141 38.78  141                         62   -0.1710  241 115 
 BLS5 SZ EPG    D  141 43.10                              92    1.3410  241 115 
 BLS5 SZ ESG       142 10.43                              92    2.3310  241 115 
 BLS5 SZ  IAML     142 11.09        44.0  0.4                           241 115 
 MOL  SZ EP   9 C  141 53.88  171                         62    0.40 0  359  45 
 MOL  SZ ES        142 29.56                                    0.6610  359  45 
 NRA0 SZ  Pn      0142 10.71                  278.5  9.9  62  9 0.6610  492  82 
 NRA0 SZ  Pg  4   0142 25.24                  270.2  7.3  91  1 8.23 0  492  82 
 NRA0 SZ  Lg      0143 22.71                  272.5  4.5   0  3-0.0510  492  82 
 HFS  SZ  Pn      0142 25.51                  269.9  9.9  62 -7 0.2410  614  88 
 HFS  SZ  Sn  4   0143 31.76                  273.4  4.2  62 -3 7.95 0  614  88 
 HFS  SZ  Lg  4   0143 58.80                  279.4  3.8   0  2 2.00 0  614  88 
 FIA0 SZ  Lg  4   0147 03.54                               0    3.96 0 1272  75 
                                                                                
