 2001  113 1733 36.4 D  13.126 -88.268 60.0F TES 21 2.1 7.8sTES 6.0bTES 6.4bPDE1
 GAP=340        5.59      60.0   119.3  0.0 -0.5234E+04  0.0000E+00  0.0000E+00E
 2001  113 1733 32.3 D  13.049 -88.660 60.0  PDE427 1.1 6.4bPDE 7.8sPDE        1
 2001 0113 1733 32.3 D  13.049-88.660  60.0  PDE        6.4bPDE                1
 ACTION:SPL 14-12-11 12:04 OP:jh   STATUS:               ID:20010113173336 L   I
 2001-01-13-1742-24S.KONO__004                                                 6
 2001  113 1733 16.6 D  10.591 -89.797 33.0F*NAO  1                     6.6bNAO1
      76  OFF COAST OF CENTRAL AMERICA                                         3
 STAT SP IPHASW D HRMM SECON CODA AMPLIT PERI AZIMU VELO AIN AR TRES W  DIS CAZ7
 JMI  BZ EP       1745  4.95                              25   -2.2810 8265  20 
 JMI  BZ ES       1754 40.12                              27    3.1610 8265  20 
 JNW  SZ EP       1745 12.0                               25    4.1610 8277  20 
 KBS  BZ EP       1745 35.76                              23    0.9010 8811  11 
 KBS  LN ES   3   1755 27.25                              25   -3.12 2 8811  11 
 KBS  LN ESS      18 0 35.98                              37   -2.3510 8811  11 
 SUE  SZ EP       1745 39.11                              23   -0.8110 8914  30 
 FOO  SZ EP       1745 43.84                              23    3.6510 8920  29 
 ASK  SZ EP       1745 42.73                              23    1.1710 8948  30 
 ASK  SZ E        1745 46.88       342.4 1.50                          8948  30 
 EGD  SZ EP       1745 41.69                              23   -0.1410 8954  30 
 BER  SZ EP       1745 41.15                              23   -0.8710 8957  30 
 RUND LZ I        1749 11.66                                           8959  30 
 RUND LN ES   3   1755 52.35                              25    7.81 2 8959  30 
 RUND LN ESS      18 0 58.62                              37    0.3610 8959  30 
 RUND LZ E        1817 45.67      40.6e4 21.4                          8959  30 
 KMY  SZ EP       1745 40.69                              23   -2.1610 8975  31 
 KMY  SZ E        1745 50.60       245.1 1.00                          8975  31 
 MOL  BZ EP       1745 45.48                              23    0.0010 9030  28 
 ODD1 SZ EP       1745 47.20                              23    1.2310 9038  31 
 BLS5 SZ EP       1745 44.11                              23   -1.8710 9038  31 
 BLS5 SZ  IAmb    1745 57.68       215.0 0.72                          9038  31 
 ODD1 SZ  IAmb    1746 23.57     36303.8 9.84                          9038  31 
 TRON SN EP       1745 53.37                              22    2.1310 9152  27 
 LOF  SZ EP       1745 54.24                              22    2.7610 9157  22 
 LOF  SZ E        1746  5.73       671.1 1.90                          9157  22 
 NSS  SZ EP       1745 51.73                              22   -1.5410 9195  25 
 NSS  SZ E        1746  5.10       444.6 1.40                          9195  25 
 KONO BZ EP       1745 52.68                              22   -1.2110 9207  30 
 KONO LN EPP      1748 57.30                              36   -6.6410 9207  30 
 KONO LE ES       1756 11.69                              24    4.2110 9207  30 
 KONO LE ESS      18 1 30.94                              37   -0.4610 9207  30 
 KONO LZ E        1818  7.38      60.3e4 23.1                          9207  30 
 MOR8 BZ EP       1745 54.95                              22   -1.2110 9256  24 
 NB2  SZ  P       1745 53.70                  284.7 22.7  22  0-2.5610 9257  29 
 TRO  SZ EP       1745 57.75                              22   -0.8710 9311  20 
 KTK1 SN EP       1746  7.98                              21    0.9610 9495  20 
                                                                                
