 1993  929 2225 48.6 D  18.066  76.451  6.8  PDE625     6.3bPDE 6.2sPDE 6.2WGS 1
 1993  929 2225 48.6 D  18.066  76.451  6.8  PDE625     6.3bPDE 6.2sPDE 6.2WGS 1
 ACTION:SPL 14-12-11 12:04 OP:jh   STATUS:               ID:19930929222826     I
 1993-09-29-2228-26S.TEST__007                                                 6
 1993-09-29-2228-26S.TEST__014                                                 6
 STAT SP IPHASW D HRMM SECON CODA AMPLIT PERI AZIMU VELO AIN AR TRES W  DIS CAZ7
                                                                                
