 2006 1220 0328 32.0 L  66.278  13.267  0.0  TES 12 0.5 2.2LTES 2.5CTES 2.4LNAO1
 GAP= 82        2.74       4.0    11.2  8.4 -0.2596E+01  0.2504E+01  0.9809E+01E
 ACTION:SPL 14-12-11 12:04 OP:jh   STATUS:               ID:20061220032831 L   I
 2006-12-20-0328-26S.LOF___006                                                 6
 2006-12-20-0329-36S.MOL___006                                                 6
 2006-12-20-0329-05S.TRO___003                                                 6
 2006-12-20-0329-05S.KTK___003                                                 6
 2006-12-20-0327-41S.MOR___003                                                 6
 2006-12-20-0329-40S.DOM___001                                                 6
 2006-12-20-0327-53S.STOK__003                                                 6
 2006-12-20-0327-52S.STOK2_003                                                 6
 2006-12-20-0327-54S.STOK1_003                                                 6
 2006 1220 0328 31.5 L  66.236  13.602       NAO  4 1.6                 2.4LNAO1
                 1.6     0.0     0.2   -1.0                                    5
     646  NORTHERN NORWAY                                                      3
 STAT SP IPHASW D HRMM SECON CODA AMPLIT PERI AZIMU VELO AIN AR TRES W  DIS CAZ7
 STOK2SZ IP     D  328 32.81                              90   -0.4710 7.83  34 
 STOK2SZ ES        328 34.40                              90    0.1810 7.83  34 
 STOK2SZ  IAML     328 35.12      1312.7 0.17                          7.83  34 
 STOK SZ IP     C  328 33.57   86                         90   -0.5110 12.7 299 
 STOK SZ ES        328 35.58                              90   -0.0210 12.7 299 
 STOK SZ  IAML     328 35.87       870.0 0.12                          12.7 299 
 STOK1SZ IP     D  328 35.45                              90   -0.6810 25.5 345 
 STOK1SZ ES        328 39.48                              90    0.3010 25.5 345 
 STOK1SZ  IAML     328 39.86       335.8 0.18                          25.5 345 
 MOR8 SZ EP        328 40.65   96                         90   -0.1110 54.1 102 
 MOR8 SN ES        328 48.81                              90    1.5910 54.1 102 
 MOR8 SZ  IAML     328 50.09       238.9 0.22                          54.1 102 
 LOF  SZ EP        329  3.57  205                         50    0.3910  207   3 
 LOF  SZ ES        329 27.53                              50    1.3010  207   3 
 LOF  SZ  IAML     329 34.69        13.1 0.45                           207   3 
 TRO  BE ESg       330 34.78                              90   -1.4610  443  30 
 MOL  HE ES        330 28.84                              49    0.3910  496 216 
 KTK1 SZ EP        329 43.55                              49    1.6410  521  50 
 KTK1 SZ  IAML     330 59.00         7.5 0.49                           521  50 
 KTK1 SN ESg       330 59.21                              90    1.0410  521  50 
 NB2  SZ  Pn      0329 51.60                    8.0  8.7  50  0 0.4510  593 191 
 NB2  SZ  Sn  3   0330 53.75                    8.8  5.1  50  0 4.05 2  593 191 
 NB2  SZ  Lg  3   0331 20.47                               0    3.84 2  593 191 
 ARA0 SZ  Pn      0329 54.55                  233.8  8.2  50 -6-0.9110  628  49 
 ARA0 SZ  Sn      0330 57.55                  235.6  5.2  50 -4 0.3410  628  49 
 ARA0 SZ  Lg      0331 24.95                  230.7  4.3   0 -9-1.4010  628  49 
 HFS  SZ  Pn      0330 02.05                    4.2 11.4  50  6-0.5510  685 178 
 HFS  SZ  Sn  3   0331 12.35                    8.7  4.3  50 10 2.72 2  685 178 
 HFS  SZ  Lg      0331 41.44                    3.8  3.8   0  5-0.9010  685 178 
 FIA0 SZ  Pn      0330 18.95                  318.5  8.7  50  2-1.1610  826 125 
 FIA0 SZ  Sn      0331 40.22                  329.0  4.6  50 13 0.1210  826 125 
 FIA0 SZ  Lg  3   0332 17.75                  319.8  4.7   0  4-3.78 2  826 125 
                                                                                
