 2007 10 2 18 0  6.9 D  54.511-161.708 32.0  PDE583     6.2bPDE 6.2sPDE 6.3WGCM1
 2007 10 2 18 0  6.9 D  54.511-161.708 32.0  PDE583     6.2bPDE 6.2sPDE 6.3WGCM1
 GAP=151      481.59     999.9   999.9  0.0 -0.2197E+07  0.0000E+00  0.0000E+00E
  250.0      24.0      87.0                                           HAR     O3
 ACTION:SPL 14-12-11 12:04 OP:jh   STATUS:               ID:20071002175805     I
 2007-10-02-1758-24S.IRIS__042                                                 6
 STAT SP IPHASW D HRMM SECON CODA AMPLIT PERI AZIMU VELO AIN AR TRES W  DIS CAZ7
                                                                                
