 2007 1116 0312 18.2 D  -2.312 -77.838123.0  PDE 189                    6.3bPDE1
  157.4600   41.4100  -40.8900     1  0.0   0.0                       FOCMEC   F
  177.       29.0     -44.0                                                   OF
 GAP=108      422.97     999.9   999.9  0.0  0.8182E+06  0.0000E+00  0.0000E+00E
 2007 1116  313  0.1 D  -2.312 -77.838123.0  PDE649 0.9                 6.3bPDE1
 ACTION:SPL 14-12-11 12:04 OP:jh   STATUS:               ID:20071116031310     I
 07/11/16 03:13:10   0.73N  77.90W   2.6 6.3M     COLOMBIA-ECUADOR BORDER REGIO3
 2007-11-16-0309-53S.IRIS__021                                                 6
 STAT SP IPHASW D HRMM SECON CODA AMPLIT PERI AZIMU VELO AIN AR TRES W  DIS CAZ7
                                                                                
