 2008  221  246 17.9 D  77.080  18.573 10.0  PDE637     5.7bPDE 5.9sPDE 6.1WGCM1
 ACTION:SPL 14-12-11 12:04 OP:jh   STATUS:               ID:20080221024617 L   I
                            6 MM                                        BER    2
 svalbard.bh.seed                                                              6
 2008 0221 0246 17.4 L  77.079  18.994 19.0  NAO  8 1.1                 5.9LNAO1
     643  SVALBARD REGION                                                      3
     643  STORFJORDEN-HEER LAND SVALBARD                                       3
 STAT SP IPHASW D HRMM SECON CODA AMPLIT PERI AZIMU VELO AIN AR TRES W  DIS CAZ7
                                                                                
