 1996  6 3 1955 20.2 D  45.736 154.919  1.0  TES 15 2.2                 5.6bPDE1
 GAP=348        5.75     999.9   999.9999.9 -0.5178E+08 -0.1439E+09  0.5088E+09E
 1996 0603 1955 31.8 D  46.787153.722  33.0  PDE        5.6bPDE                1
 ACTION:UP  14-02-26 21:02 OP:jh   STATUS:               ID:19960603195540     I
 OLDACT:SPL 08-10-02 10:19 OP:jh   STATUS:               ID:19960603195540     3
 1996-06-03-2002-18S.TEST__012                                                 6
 1996-06-03-1917-52S.TEST__002                                                 6
 STAT SP IPHASW D HRMM SECON CODA AMPLIT PERI AZIMU VELO AIN AR TRES W  DIS CAZ7
 TRO  SZ EP       20 5 32.5                               21    1.4810 6725 344 
 LOF  SZ IP     C 20 5 46.68                              20    0.0610 6981 345 
 JNW  SZ EP       20 5 49.5                               20    2.2010 6994 354 
 JMI  LZ I        20 8 27.35                                           7007 354 
 JMI  LZ I        2014 41.56                                           7007 354 
 JMI  LZ I        2021 25.49                                           7007 354 
 MOL  SZ IP       20 6 25.63                              19   -0.4610 7661 344 
 SUE  SZ IP     C 20 6 39.07                              19    1.2210 7873 345 
 ASK  SZ EP       20 6 37.24                              18   -3.3910 7924 345 
 BER  SZ EP       20 6 37.43                              18   -3.6110 7931 345 
 EGD  SZ EP       20 6 38.42                              18   -3.3710 7945 345 
 ODD1 SZ EP       20 6 45.57                              18    3.2610 7952 344 
 KBS  LZ EP       20 4 40.63                              22   -1.9910 5966 352 
 KBS  LZ  IAMs_20 2026 45.90      1454.7 18.0                                   
 FOO  SZ EP       20 6 35.99                              19    1.5310 7811 345 
 FOO  SZ  IAmb    20 6 36.87       213.1 1.08                                   
 BLS5 SZ EP       20 6 46.33                              18    1.1110 8006 344 
 BLS5 SZ  IAmb    20 6 48.03        94.2 0.92                                   
 KONO LZ IP     C 20 6 40.72                              18    0.6910 7912 342 
 KONO LZ  IAMs_20 2041 49.10      3057.2 19.9                                   
 HYA  SZ EP       20 6 36.91                              19    1.2610 7833 345 
 HYA  SZ  IAmb    20 6 38.69       662.8 1.44                                   
                                                                                
