 1996  6 3 1955 35.6 D  47.773 153.211  0.0  TES 12 1.1                 5.6bPDE1
 GAP=348        2.88     999.9   999.9999.9 -0.1405E+08 -0.3810E+08  0.1204E+09E
 1996 0603 1955 31.8 D  46.787153.722  33.0  PDE        5.6bPDE                1
 ACTION:SPL 14-12-11 12:04 OP:jh   STATUS:               ID:19960603195535 L   I
 1996-06-03-2002-18S.TEST__012                                                 6
 1996-06-03-1917-52S.TEST__002                                                 6
 STAT SP IPHASW D HRMM SECON CODA AMPLIT PERI AZIMU VELO AIN AR TRES W  DIS CAZ7
 KBS  BZ EP       20 4 40.63                              23   -1.3110 5722 351 
 TRO  SZ EP       20 5 32.5                               21    1.7610 6470 343 
 LOF  SZ IP     C 20 5 46.68                              21   -0.1010 6727 344 
 JNW  SZ EP       20 5 49.5                               21    1.1910 6753 353 
 JMI  LZ I        20 8 27.35                                           6767 353 
 JMI  LZ I        2014 41.56                                           6767 353 
 JMI  LZ I        2021 25.49                                           6767 353 
 MOL  SZ IP     C 20 6 25.49                              19   -1.7410 7406 343 
 FOO  SZ EP       20 6 35.99                              19    0.1110 7558 344 
 HYA  SZ EP       20 6 36.91                              19   -0.1410 7578 343 
 SUE  SZ IP     C 20 6 39.07                              19   -0.2910 7619 344 
 KONO BZ IP     C 20 6 40.72                              19   -0.7010 7655 341 
 ASK  SZ EP   9   20 6 37.24                              19   -4.95 0 7669 344 
 BER  SZ EP   9   20 6 37.43                              19   -5.17 0 7677 344 
 EGD  SZ EP   9   20 6 38.42                              19   -4.95 0 7691 344 
 ODD1 SZ EP       20 6 45.57                              19    1.7210 7697 343 
 BLS5 SZ EP       20 6 46.33                              19   -0.5010 7751 343 
                                                                                
