 1996  6 6 0648 30.4 L  62.636   5.050 15.0  TES 13 0.9 2.9LTES 3.0CTES 3.0LNAO1
 GAP=267        5.02      15.9    36.5 26.9 -0.4047E+03  0.6258E+03 -0.2817E+03E
 1996  6 6 0648 30.5 L                       BER        2.8WBER                1
 ACTION:SPL 14-12-11 12:04 OP:jh   STATUS:               ID:19960606064830 L   I
 1996-06-06-0647-46S.TEST__011                                                 6
 STAT SP IPHASW D HRMM SECON CODA AMPLIT PERI AZIMU VELO AIN AR TRES W  DIS CAZ7
 FOO  SZ EP     C  648 48.47  136                         90   -0.1210  116 180 
 FOO  SZ ESG       649  2.67                              90    0.6110  116 180 
 FOO  SZ  IAML     649  2.89       426.4  0.3                           116 180 
 MOL  SZ EP     C  648 49.97  144                         90   -0.3410  128  92 
 MOL  SZ EPG    C  648 50.90                              90    0.3610  128  92 
 MOL  AZ E         649  5.86                                            128  92 
 MOL  SZ ESG       649  5.87                              90    0.4210  128  92 
 MOL  SZ  IAML     649  6.98       328.6  0.6                           128  92 
 HYA  SZ IP     D  648 56.78                              50    0.7810  174 159 
 HYA  SZ EP        648 56.78  135                         50    0.7810  174 159 
 HYA  SZ EPG    D  648 57.56                              90    0.0810  174 159 
 HYA  SZ ESG       649 18.07                              90    0.5510  174 159 
 HYA  SZ  IAML     649 19.17       530.6  0.2                           174 159 
 SUE  SZ ESG       649 18.43                              90    0.3110  177 185 
 SUE  AZ E         649 19.27                                            177 185 
 SUE  SZ  IAML     649 19.59       197.4  0.2                           177 185 
 ASK  SZ EP        649  2.94  183                         50   -1.2210  240 178 
 ASK  SZ ESG       649 34.72                              90   -0.1210  240 178 
 EGD  SZ EP     D  649  5.76                              50   -1.3310  264 178 
 EGD  SZ I         649  7.05                                            264 178 
 EGD  SZ EPG    D  649  7.05                              90   -3.9610  264 178 
 EGD  SZ ESG       649 40.53                              90   -0.5410  264 178 
 EGD  SZ  IAML     649 46.54        95.6  0.4                           264 178 
 ODD1 SZ EP        649 15.91  180                         50    2.3610  315 164 
 ODD1 SZ I         649 21.72                                            315 164 
 ODD1 SZ ESG       649 57.24                              90    2.5610  315 164 
 ODD1 SZ  IAML     650  2.12        84.5  0.2                           315 164 
 BLS5 SZ EP        649 19.99  202                         50    0.1410  366 167 
 BLS5 SZ ESG       650  9.17                              90    1.0910  366 167 
 BLS5 SZ  IAML     650 13.30        49.3  0.4                           366 167 
 KMY  SZ EP        649 20.93                              50   -0.8210  382 178 
 NRA0 SZ  Pn      0649 24.03                  309.6  8.5  50  5-0.4510  403 119 
 NRA0 SZ  Pg      0649 32.60                  305.6  7.2  90  1 0.4110  403 119 
 NRA0 SZ  Lg      0650 22.05                  302.0  4.0   0 -1-0.3910  403 119 
 KONO BN EP   3    649 32.65  133                         50    6.99 2  413 142 
 KONO BN ESG       650 20.03                              90   -0.4310  413 142 
 HFS  SZ  Pn      0649 41.41                  266.8  8.7  50-37 0.0810  539 117 
 HFS  SZ  Lg      0650 58.09                  293.0  3.2   0-11-2.0310  539 117 
 BER  SZ EP     C  649  7.56                              50    1.9910  251 176 
 BER  SZ ESG       649 36.61                              90   -1.2310  251 176 
 BER  SZ  IAML     649 39.15       102.2 0.40                           251 176 
                                                                                
