 1996  610  1 4 47.0 D                       TES  0                     6.7WGS 1
 1996  610  1 4 47.0 D -13.481 167.130200.1  PDE301     5.8bPDE 5.9sPDE 6.7WGS 1
 ACTION:SPL 14-12-11 12:04 OP:jh   STATUS:               ID:19960610010447 L   I
 1996-06-10-0105-42S.TEST__014                                                 6
 STAT SP IPHASW D HRMM SECON CODA AMPLIT PERI AZIMU VELO AIN AR TRES W  DIS CAZ7
                                                                                
