 1996  623 0117 57.8 D  51.678 159.983 30.7  TES 16 0.5 3.5sTES 5.8bTES 5.4bPDE1
 GAP=347        2.75      32.9   242.9  7.1  0.1254E+04  0.2588E+03 -0.7800E+02E
 1996 0623 0117 56.2 D  51.573 159.554 33.0  PDE        5.4bPDE                1
 ACTION:SPL 14-12-11 12:04 OP:jh   STATUS:               ID:19960623011757 L   I
 1996-06-23-0126-27S.TEST__013                                                 6
 1996-06-23-0059-47S.TEST__001                                                 6
 STAT SP IPHASW D HRMM SECON CODA AMPLIT PERI AZIMU VELO AIN AR TRES W  DIS CAZ7
 KBS  SZ IP     C  126 35.8                               27    0.8110 5363 352 
 KTK1 SZ IP     C  127 28.92                              25    0.0410 6164 343 
 KTK1 SZ  IAmb     127 31.53       351.9  1.3                          6164 343 
 TRO  SZ IP     C  127 29.98                              25   -0.3910 6189 345 
 TRO  SZ  IAmb     127 32.67       290.5  1.3                          6189 345 
 JMI  LZ E         127 53.44                                           6380 356 
 JMI  LN I         135 49.17                                           6380 356 
 JMI  LZ ESS       139 30.46                              32   -0.0710 6380 356 
 LOF  SZ IP     C  127 45.87                              24   -0.2110 6434 346 
 LOF  SZ  IAmb     127 48.58       491.6  1.4                          6434 346 
 MOR8 SZ IP     C  127 55.84                              24   -1.83 9 6618 345 
 MOR8 SZ  IAmb     127 58.23       158.6  1.3                          6618 345 
 NSS  SN IP     C  128 11.22                              23    0.4710 6832 345 
 NSS  SN  IAmb     128 14.46        53.0  1.6                          6832 345 
 MOL  SZ IP     C  128 26.95                              23   -0.6910 7113 346 
 FOO  SZ EP        128 37.18                              22    1.1410 7256 347 
 FOO  SZ  IAmb     128 37.86        52.4  1.2                          7256 347 
 HYA  SZ EP        128 38.05                              22    0.3810 7284 346 
 HYA  SZ EsP       128 51.96                             167   -0.0110 7284 346 
 SUE  SZ EP        128 39.93                              22    0.2810 7319 347 
 SUE  SZ  IAmb     128 44.08        96.0  1.1                          7319 347 
 ASK  SZ EP        128 42.77                              22   -0.0510 7373 347 
 ASK  SZ  IAmb     128 46.09       133.7  1.4                          7373 347 
 BER  SZ EP        128 43.11                              22   -0.1910 7381 347 
 BER  SZ  IAmb     128 46.89       107.0  1.5                          7381 347 
 KONO BZ IP     C  128 43.30                              22   -0.2310 7385 344 
 KONO LZ I         128 44.72                                           7385 344 
 KONO BZ E         128 47.29        77.6  1.8                          7385 344 
 KONO LZ EPP       131 11.04                              31    0.2410 7385 344 
 KONO LN IS        137 31.89                              24    0.0210 7385 344 
 KONO LE  IAmb     145 20.78                                           7385 344 
 EGD  SZ EP        128 44.08                              22   -0.0110 7395 347 
 BLS5 SZ EP        128 48.26                              22    0.0610 7465 346 
 BLS5 SZ  IAmb     128 55.30        30.8  1.3                          7465 346 
                                                                                
