 2005 1023 2001  5.8 L  66.250  13.024  0.0  BER  7 0.4 1.8LBER 1.8CBER        1
 GAP=163        1.26       2.8    10.3  6.8  0.6169E+01  0.3882E+02  0.9566E+01E
 ACTION:SPL 14-12-11 12:04 OP:jh   STATUS:               ID:20051023200105 L   I
 2005-10-23-2000-55S.NNSN__018                                                 6
 STAT SP IPHASW D HRMM SECON CODA AMPLIT PERI AZIMU VELO AIN AR TRES W  DIS CAZ7
 STOK SZ IP     D 20 1  7.39   12                         90    0.1110 9.27 358 
 STOK SZ ES       20 1  8.95                              90    0.5710 9.27 358 
 STOK SZ  IAML    20 1  9.23       938.0 0.14                          9.27 358 
 STOK2SZ EP       20 1  8.73                              90    0.0310 18.1  58 
 STOK2SE ES       20 1 11.44                              90    0.5910 18.1  58 
 STOK2SE  IAML    20 1 11.59       246.4 0.14                          18.1  58 
 STOK1SZ EP       20 1 10.15                              90   -0.1710 28.1   9 
 STOK1SE ES       20 1 13.94                              90    0.2710 28.1   9 
 STOK1SE  IAML    20 1 14.30       128.4 0.18                          28.1   9 
 MELS SZ EP       20 1 17.77   90                         90   -0.1310 75.1  24 
 MELS SZ ES       20 1 26.11                              90   -0.7610 75.1  24 
 MOR8 SZ EP       20 1 17.52  155                         90   -0.6510 76.8  86 
 MOR8 SZ ES       20 1 27.60                              90    0.2610 76.8  86 
 MOR8 SZ  IAML    20 1 28.27        26.2 0.22                          76.8  86 
 NSS  BZ EP       20 1 35.69  133                         50   -0.1210  198 195 
 NSS  BZ ES       20 1 58.34                              50    0.3110  198 195 
 NSS  BZ  IAML    20 2  2.12        10.3 0.43                           198 195 
 LOF  SZ EP       20 1 37.27  165                         50   -0.1910  211   6 
 LOF  SZ ES       20 2  0.78                              50   -0.1210  211   6 
 LOF  SZ  IAML    20 2  8.56        10.2 0.40                           211   6 
 MOL  SZ ES   9   20 2 46.57                              49   -13.8 0  487 215 
                                                                                
