 2008  415 2259 51.3 D  51.659 179.402 12.2  BER 18 1.6 6.3sBER 5.6bBER 6.1bPDE1
 GAP=347        5.21     131.3   372.9 67.9  0.8659E+04 -0.9750E+03 -0.8482E+04E
 2008  415 2259 51.3 D  51.854-179.358 10.0  PDE599     6.1bPDE 6.4sPDE 6.4WGS 1
 ACTION:SPL 14-12-11 12:04 OP:jh   STATUS:               ID:20080415225951 L   I
 2008-04-15-2309-51S.NNSN__013                                                 6
 2008-04-15-2310-12S.OSL___001                                                 3
 2008-04-15-2310-04S.DOM___001                                                 3
 2008-04-15-2310-25S.HYA___003                                                 3
 2008-04-15-2309-24S.LOF___006                                                 3
 2008-04-15-2310-15S.ODD___003                                                 3
 2008-04-15-2310-23S.BLS___003                                                 3
 2008-04-15-2309-10S.MOR___003                                                 3
 2008-04-15-2259-59S.NSN___030                                                 3
 2008  415 2259 43.9 D  50.174-178.788 33.0F*NAO  1                     5.4bNAO1
       7  ANDREANOF ISLANDS, ALEUTIAN ISL                                      3
 STAT SP IPHASW D HRMM SECON CODA AMPLIT PERI AZIMU VELO AIN AR TRES W  DIS CAZ7
 KBS  BE ES       2315 49.61                              25    2.1110 5496 357 
 BJO1 BZ EP       23 9  9.20                              23   -0.8410 5937 354 
 BJO1 BZ  IAMs_20 2334 48.92     22292.8 17.1                          5937 354 
 JMIC BE ES       2317 35.62                              23   -1.3110 6391   3 
 TRO  BZ EP       23 9 41.74                              21   -2.3410 6464 352 
 TRO  BE ES       2317 42.04                              23   -3.4010 6464 352 
 TRO  BZ  IAMs_20 2340  4.73     21020.9 21.1                          6464 352 
 KTK1 HE ES       2317 49.28                              23    1.3010 6484 350 
 LOF  SZ EP       23 9 59.86                              21    2.7110 6673 354 
 LOF  SZ  IAmb    2310  9.78       249.5 3.46                          6673 354 
 MOR8 SZ EP       2310  9.01                              21   -0.0510 6866 353 
 MOR8 SZ  IAML    2310 17.65        59.0 0.58                          6866 353 
 STOK EZ EP       2310  9.27                              21   -0.2310 6875 354 
 STOK EN ES       2318 36.65                              22    3.6510 6875 354 
 NSS  BZ EP       2310 20.61                              20   -1.2910 7081 354 
 NSS  BZ  IAmb    2310 31.45       132.0 3.35                          7081 354 
 NSS  BN ES       2318 57.25                              22    0.9310 7081 354 
 NSS  BN ESS      2323  6.23                              28   -0.8710 7081 354 
 NSS  BZ  IAMs_20 2338 23.48     18777.0 19.9                          7081 354 
 MOL  HZ EP       2310 36.17                              20   -0.0710 7325 356 
 MOL  HE ES       2319 21.83                              22   -1.5610 7325 356 
 DOMB SZ EP       2310 38.92                              20   -0.1010 7371 355 
 DOMB SZ  IAmb    2310 51.84       153.2 1.62                          7371 355 
 FOO  HZ EP       2310 42.64                              19   -0.4310 7444 357 
 FOO  HZ  IAmb    2310 55.09       102.1 1.41                          7444 357 
 FOO  HN ES       2319 37.04                              21    0.7110 7444 357 
 NB2  SZ  P       2310 44.60                    6.9 17.7  19  0-0.2010 7472 354 
 OSL  SZ EP       2310 51.81                              19   -0.0110 7597 354 
 ODD1 SZ EP       2310 52.38                              19   -1.0910 7625 356 
 ODD1 SZ  IAmb    2311  3.02       174.4 2.91                          7625 356 
 KONO BZ EP       2310 53.32                              19   -0.7610 7637 354 
 KONO BZ  IAmb    2311  7.44       162.4 1.88                          7637 354 
 KONO BE ES       2319 55.65                              21   -1.5710 7637 354 
 BLS5 SZ EP       2310 58.58                              19    2.0510 7680 356 
 BLS5 SZ  IAmb    2311  9.92        40.3 1.37                          7680 356 
 KBS  BZ EP       23 8 41.33                              23    1.0010 5496 357 
 KBS  BZ  IAmb    23 8 51.72       411.3 2.40                          5496 357 
 KBS  BZ  IAMs_20 2330 11.46     42657.0 14.3                          5496 357 
 KBS  BZ  IAmb    23 8 44.21       617.5 1.25                                   
 HYA  SZ EP       2310 47.21                              19    1.6410 7487 356 
 HYA  SZ  IAmb    2310 59.43       216.7 1.57                          7487 356 
                                                                                
