 2000  2 1 1242 20.2 L  61.606   4.693  0.0  TES 13 0.7 2.3LTES 2.1CTES 2.3LNAO1
 GAP=236        3.81       8.8    21.8 10.3 -0.1057E+03  0.3734E+02  0.3533E+01E
 ACTION:SPL 14-12-11 12:04 OP:jh   STATUS:               ID:20000201124220 L   I
 2000-02-01-1241-43S.FOO___003_CM6                                             6
 2000-02-01-1241-50S.SUE___003_CM6                                             6
 2000-02-01-1241-55S.HYA___003_CM6                                             6
 2000-02-01-1242-03S.NSN___005_CM6                                             6
 2000 0201 1242 20.3 L  61.680   5.076       NAO  2 1.8                 2.3LNAO1
     535  SOUTHERN NORWAY                                                      3
 STAT SP IPHASW D HRMM SECON CODA AMPLIT PERI AZIMU VELO AIN AR TRES W  DIS CAZ7
 SUE  SZ EP       1242 29.92   94                         90   -0.1910 61.2 177 
 SUE  SN ESG      1242 39.04                              90    1.6210 61.2 177 
 RUND BZ EP       1242 41.80                              90   -0.6510  138 164 
 RUND BZ ES       1242 59.69                              90    0.8010  138 164 
 BER  SZ EP       1242 42.28   58                         70   -0.5710  140 165 
 BER  SZ ES       1242 59.86                              70    0.2710  140 165 
 BER  SZ  IAML    1243  0.51        53.1  0.4                           140 165 
 EGD  SZ EP       1242 43.50   57                         50   -0.9910  151 169 
 EGD  SZ ES       1243  3.18                              50    0.7410  151 169 
 MOL  SZ EP       1242 50.15  111                         50    1.6310  184  53 
 MOL  SZ ESG      1243 11.67                              90   -0.1510  184  53 
 MOL  SZ  IAML    1243 13.60        50.7  0.2                           184  53 
 ODD1 SZ EP       1242 51.24   97                         50   -1.3610  216 150 
 ODD1 SZ I        1242 53.04                                            216 150 
 ODD1 SZ ES       1243 15.27                              50   -1.2710  216 150 
 BLS5 SZ EP       1242 57.67  103                         50   -0.5710  262 158 
 BLS5 SZ ES       1243 25.65                              50   -0.7210  262 158 
 KMY  SZ EP       1242 58.04                              50   -0.9810  268 173 
 KMY  SZ ES       1243 27.97                              50    0.2410  268 173 
 KONO BZ ES       1243 45.63                              50    1.1710  346 127 
 NRA0 SZ  Pn      1243 12.32                  299.8  9.8  50 12-0.7010  381 102 
 NRA0 SZ  Sn      1243 51.84                  289.6  5.1  50  2-0.2410  381 102 
 NRA0 SZ  Lg      1244 02.07                  289.0  4.2   0  1-3.9710  381 102 
 HFS  SZ  Pn      1243 31.10                  291.2  7.7  50  0 1.3810  515 105 
 HFS  SZ  Sn      1244 24.95                  284.0  8.6  50 -7 3.8210  515 105 
 HFS  SZ  Lg      1244 42.40                  281.5  3.5   0-10-0.9710  515 105 
 FOO  SZ EP       1242 23.50   57                         90    0.2610 18.6  92 
 FOO  SZ ESG      1242 26.20                              90    0.7410 18.6  92 
 FOO  SZ  IAML    1242 26.71       699.5 0.30                          18.6  92 
 HYA  SZ EP       1242 35.15   79                         90   -0.1910 93.7 121 
 HYA  SZ ESG      1242 47.40                              90    0.8810 93.7 121 
 HYA  SZ  IAML    1242 48.22       117.9 0.20                          93.7 121 
                                                                                
