 2000  210 0617 57.4 L  61.760   4.539  6.0F TES 20 0.7 3.6LTES 2.9CTES 3.3WBER1
 2000  210 0617 57.4 L                       TES        3.3WTES                1
 SPEC AVERAGE  MO 14.0 ST 16.4 OM  2.8 f0 3.48 R0.3815 AL 2.33 WI 20.2 MW  3.3 3
 SPEC SD       MO  0.3 ST 19.4 OM  0.2 f0 0.81 R0.0879 AL      WI      MW  0.2 3
 GAP=196        3.21       5.0    15.5  0.0 -0.2066E+02  0.0000E+00  0.0000E+00E
 ACTION:SPL 14-12-11 12:04 OP:jh   STATUS:               ID:20000210061757 L   I
 Depth calculated to 0, after using local model depth fixed to 6 km. alk       3
 SPEC ODD1S  Z MO 14.4 ST 54.7 OM  3.0 f0 4.80 R0.2625 AL 2.94 WI 20.1 MW  3.5 3
 SPEC ODD1S  Z T 61857 K 0.000 GD  153 VS 3.60 DE 3.00 Q0440.0 QA 0.70 VS 3.60 3
 SPEC MOL S  Z MO 14.2 ST 11.2 OM  2.9 f0 3.19 R0.3950 AL 2.41 WI 26.5 MW  3.4 3
 SPEC MOL S  Z T 61842 K 0.000 GD  134 VS 3.60 DE 3.00 Q0440.0 QA 0.70 VS 3.60 3
 SPEC FOO S  Z MO 13.8 ST  1.8 OM  3.1 f0 2.40 R0.5250 AL 2.15 WI 12.1 MW  3.1 3
 SPEC FOO S  Z T 618 6 K 0.000 GD 32.9 VS 3.60 DE 3.00 Q0440.0 QA 0.70 VS 3.60 3
 SPEC EGD S  Z MO 13.7 ST  6.2 OM  2.4 f0 3.89 R0.3239 AL 2.43 WI 19.0 MW  3.1 3
 SPEC EGD S  Z T 61841 K 0.000 GD  130 VS 3.60 DE 3.00 Q0440.0 QA 0.70 VS 3.60 3
 SPEC BER S  Z MO 14.1 ST  7.9 OM  2.8 f0 3.14 R0.4013 AL 1.73 WI 23.3 MW  3.3 3
 SPEC BER S  Z T 61836 K 0.000 GD  126 VS 3.60 DE 3.00 Q0440.0 QA 0.70 VS 3.60 3
 2000-02-10-0617-23S.TEST__006_CM6                                             6
 2000-02-10-0617-41S.TEST__006_CM6                                             6
 2000 0210 0617 56.4 L  61.783   4.794  5.1  NAO  5 1.3                        1
     535  SOUTHERN NORWAY                                                      3
 STAT SP IPHASW D HRMM SECON CODA AMPLIT PERI AZIMU VELO AIN AR TRES W  DIS CAZ7
 FOO  SZ EP        618  3.51                             101    0.7810 32.3 124 
 FOO  SZ ES        618  9.21                             101    2.5710 32.3 124 
 FOO  SZ  IAML     618 10.51      3678.8  0.5                          32.3 124 
 SUE  SZ EP        618  9.96  178                         94   -0.2910 79.2 171 
 SUE  SZ ES        618 21.78                              94    2.0510 79.2 171 
 SUE  SZ  IAML     618 24.43      4518.0  0.3                          79.2 171 
 HYA  SZ EP        618 14.90  152                         70   -0.2010  110 126 
 HYA  SZ ES        618 30.23                              70    2.0610  110 126 
 ASK  SZ EP        618 19.84                              50   -0.6310  147 166 
 RUND BZ EP        618 21.18                              50   -0.5710  157 163 
 RUND BZ ES        618 41.71                              50    1.9610  157 163 
 BER  SZ EP        618 21.26                              50   -0.7810  159 164 
 BER  SZ ES        618 40.96                              50    0.7110  159 164 
 BER  SZ  IAML     618 44.31      1492.8  0.8                           159 164 
 EGD  SZ EP        618 22.52                              50   -0.8510  170 167 
 EGD  SZ ESG       618 45.66                              92    0.4910  170 167 
 EGD  SZ  IAML     618 49.23      1641.9  0.8                           170 167 
 MOL  SZ EP        618 25.97                              50    1.2310  181  59 
 MOL  SZ ES        618 47.59                              50    2.6410  181  59 
 MOL  SZ  IAML     618 52.09      1237.5  0.4                           181  59 
 ODD1 SZ EP        618 30.16  149                         50   -1.3710  235 150 
 ODD1 SZ ESG       619  2.21                              92   -1.2410  235 150 
 BLS5 SZ EP        618 36.60                              50   -0.5910  281 157 
 KMY  SZ EP        618 36.51  152                         50   -1.3410  287 172 
 KONO BZ EP        618 46.64                              50   -0.6910  363 128 
 NRA0 SZ  Pn      0618 49.86                  295.6  9.2  50  6-1.2110  393 104 
 NRA0 SZ  Sn      0619 30.84                  294.7  4.9  50  5 0.0910  393 104 
 NRA0 SZ  Lg      0619 44.29                  287.0  3.8   0 -2-2.2210  393 104 
 NSS  SZ EP        619  0.75                              49   -1.5710  485  47 
 HFS  SZ  Pn      0619 06.88                  286.2  8.2  50 -7-0.9610  528 106 
 HFS  SZ  Sn      0619 59.85                  289.7  4.2  50 -3-0.1010  528 106 
 HFS  SZ  Lg      0620 23.80                  294.5  3.7   0  0-0.2310  528 106 
 MOR8 SZ EP        619 30.84                              49    3.7010  689  40 
 LOF  SZ EP        619 43.52                              47    0.2710  826  27 
 FIA0 SZ  Pn      0620 21.50                  285.5 10.1  50  4-2.2210 1139  82 
 FIA0 SZ  Sn      0622 11.00                              50   -0.9710 1139  82 
 FIA0 SZ  Lg      0623 12.60                  274.9  4.5   0 -5-1.1210 1139  82 
 ARA0 SZ  P       0620 37.20                  232.7  8.4  47 -4-0.12 8 1286  39 
 ARA0 SZ  Lg      0623 54.52                  233.7  4.0   0 -3-0.04 8 1286  39 
 SPA0 SZ  P       0621 51.63                  177.9  8.4  47-21 4.59 3 1878   8 
                                                                                
