 2000  210 1740  7.2 L  61.847   4.414  2.4  TES 16 0.7 3.0LTES 2.5CTES 3.0LNAO1
 2000  210 1740  7.2 L                       TES        2.7WTES                1
 SPEC AVERAGE  MO 13.1 ST  4.1 OM  1.8 f0 4.70 R0.2721 AL 2.00 WI 13.4 MW  2.7 3
 SPEC SD       MO  0.2 ST  3.3 OM  0.2 f0 0.59 R0.0320 AL      WI      MW  0.1 3
 GAP=228        3.36       6.7    17.6  9.0 -0.4352E+02  0.2314E+02 -0.1281E+02E
 2000  210 1740  7.2 L                       BER        2.7WBER                1
 SPEC MOL S  Z MO 13.2 ST  2.4 OM  1.9 f0 4.13 R0.3051 AL 1.87 WI 15.8 MW  2.7 3
 SPEC MOL S  Z T174056 K 0.000 GD  134 VS 3.60 DE 3.00 Q0440.0 QA 0.70 VS 3.60 3
 ACTION:SPL 14-12-11 12:04 OP:jh   STATUS:               ID:20000210174007 L   I
 2000-02-10-1739-41S.NSN___033                                                 6
 2000-02-10-1739-53S.NSN___005_CM6                                             6
 SPEC ODD1S  Z MO 13.3 ST  5.5 OM  1.9 f0 5.14 R0.2451 AL 2.34 WI 12.1 MW  2.8 3
 SPEC ODD1S  Z T174110 K 0.000 GD  157 VS 3.60 DE 3.00 Q0440.0 QA 0.70 VS 3.60 3
 SPEC EGD S  Z MO 12.9 ST  1.3 OM  1.6 f0 4.24 R0.2972 AL 2.09 WI 11.1 MW  2.5 3
 SPEC EGD S  Z T174055 K 0.000 GD  134 VS 3.60 DE 3.00 Q0440.0 QA 0.70 VS 3.60 3
 SPEC BER S  Z MO 12.9 ST  1.4 OM  1.6 f0 4.35 R0.2897 AL 1.32 WI 14.9 MW  2.5 3
 SPEC BER S  Z T174048 K 0.000 GD  130 VS 3.60 DE 3.00 Q0440.0 QA 0.70 VS 3.60 3
 SPEC HYA S  Z MO 13.4 ST 10.1 OM  2.2 f0 5.64 R0.2234 AL 2.38 WI 13.1 MW  2.9 3
 SPEC HYA S  Z T174039 K 0.000 GD  110 VS 3.60 DE 3.00 Q0440.0 QA 0.70 VS 3.60 3
 2000 0210 1740 09.7 L  61.863   4.863 14.7  NAO  4 0.8                 3.0LNAO1
     535  SOUTHERN NORWAY                                                      3
 STAT SP IPHASW D HRMM SECON CODA AMPLIT PERI AZIMU VELO AIN AR TRES W  DIS CAZ7
 FOO  SZ IP   9 D 1657 23.36   68                         93   -99.9 0 43.3 129 
 FOO  SZ ES       1657 29.35                                    0.8110 43.3 129 
 SUE  SZ EP       1740 21.76   71                         92    0.0910 89.9 168 
 SUE  SZ ESG      1740 33.66                              92    1.2510 89.9 168 
 SUE  SZ  IAML    1740 36.72       665.5  0.3                          89.9 168 
 HYA  SZ EP       1740 27.03  128                         91    0.3310  121 128 
 HYA  SZ ESG      1740 42.33                              91    1.1710  121 128 
 HYA  SZ  IAML    1740 43.35      1076.4  0.3                           121 128 
 ASK  SZ EP       1740 31.67   97                         50   -0.2810  158 164 
 ASK  SZ ES       1740 52.06                              50    1.7710  158 164 
 BER  SZ EP       1740 33.04  128                         50   -0.4910  170 163 
 BER  SZ I        1740 34.20                                            170 163 
 BER  SZ ES       1740 52.64                              50   -0.3910  170 163 
 BER  SZ  IAML    1740 55.88       220.3  0.2                           170 163 
 EGD  SZ EP       1740 34.97  111                         50    0.1310  181 166 
 EGD  SZ I        1740 35.89                                            181 166 
 EGD  SZ ESG      1740 58.30                              91    0.3510  181 166 
 EGD  SZ  IAML    1740 58.71       203.3  0.4                           181 166 
 MOL  SZ EP       1740 37.99  143                         50    3.0210  182  62 
 MOL  SZ ES       1740 59.85                              50    4.3110  182  62 
 MOL  SZ  IAML    1741  2.14       129.3  0.2                           182  62 
 ODD1 SZ EP       1740 42.02  116                         50   -1.0710  247 150 
 ODD1 SZ ES       1741  8.99                              50   -0.6810  247 150 
 ODD1 SZ  IAML    1741 15.24       494.0  0.2                           247 150 
 BLS5 SZ EP       1740 48.62  126                         50   -0.1010  292 157 
 BLS5 SN ES       1741 19.42                              50   -0.0410  292 157 
 BLS5 SZ  IAML    1741 35.18        61.0  0.4                           292 157 
 KMY  SZ EP       1740 48.37                              50   -0.9010  297 171 
 KONO BZ EP       1740 58.78                              50   -0.0410  374 129 
 KONO BZ ES       1741 37.63                              50    0.5910  374 129 
 NRA0 SZ  Pn      1741 01.94                  299.5  9.9  50  8-0.3210  401 105 
 NRA0 SZ EP       1741  2.04  153                         50   -0.2210  401 105 
 NRA0 SN ES       1741 42.39                              50   -0.6310  401 105 
 NRA0 SZ  Sn      1741 42.39                  296.6  5.3  50  6-0.6310  401 105 
 NRA0 SZ  Lg      1741 57.34                  289.0  3.7   0 -1-1.3410  401 105 
 NSS  SZ EP       1741 12.69                              49    0.4510  483  48 
 HFS  SZ  Pn      1741 18.88                  287.7  8.2  50 -6-0.1910  537 107 
 HFS  SZ  Sn      1742 11.55                  294.5  4.8  50  0-0.7310  537 107 
 HFS  SZ  Lg      1742 35.18                  295.1  3.8   0  0-1.0910  537 107 
 FIA0 SZ  Pn      1742 33.32                  286.2  9.5  50  4-1.1510 1144  83 
 FIA0 SZ  Sn      1744 21.77                              50   -1.7110 1144  83 
 FIA0 SZ  Lg      1745 25.47                  279.8  4.3   0 -1 0.5510 1144  83 
 ARA0 SZ  Pn      1742 48.47                              50   -3.22 8 1282  39 
                                                                                
