 1999  913 1155 28.0 D  40.740  30.030 10.0  PDE  1                     5.8bPDE1
 ACTION:SPL 14-12-11 12:04 OP:jh   STATUS:               ID:19990913115900     I
 1999-09-13-1159-00S.TEST__019                                                 6
 STAT SP IPHASW D HRMM SECON CODA AMPLIT PERI AZIMU VELO AIN AR TRES W  DIS CAZ7
                                                                                
