 2011  129  655  0.0 D                                                         1
 ACTION:SPL 14-12-11 12:04 OP:jh   STATUS:               ID:20110129065500     I
 ARC SFJD  LHZ IU 10 2011 0129 0650 00  3600                                   6
 ARC BORG  LHZ II 10 2011 0129 0650 00  3600                                   6
 ARC KBS   LHZ GE 10 2011 0129 0650 00  3600                                   6
 ARC DAG   LHZ GE    2011 0129 0650 00  3600                                   6
 ARC BSD   LHZ DK    2011 0129 0650 00  3600                                   6
 ARC TULEG LHZ DK    2011 0129 0650 00  3600                                   6
 STAT SP IPHASW D HRMM SECON CODA AMPLIT PERI AZIMU VELO AIN AR TRES W  DIS CAZ7
                                                                                
