 2009  1 2 0742 46.2 D  31.582 138.537333.4F BER 19 0.4 4.9bBER         4.9bPDE1
 GAP=346        1.03      83.9   164.3  0.0 -0.1042E+05 -0.4676E+03  0.1113E+02E
 ACTION:SPL 14-12-11 12:04 OP:jh   STATUS:               ID:20090102074246 L   I
 2009  1 2  742 53.1 D  32.655 138.038333.4  PDE213     4.9bPDE                1
 2009-01-02-0752-18S.N_SEA_089                                                 3
 2009-01-02-0753-15S.NSS___003                                                 3
 2009-01-02-0752-36S.NNSN__004                                                 6
 STAT SP IPHASW D HRMM SECON CODA AMPLIT PERI AZIMU VELO AIN AR TRES W  DIS CAZ7
 HOPENHZ EP        752 49.20                              30    0.1510 7201 346 
 SPA0 BZ EP        752 52.91                              30   -0.3410 7274 349 
 KBS  BZ EP        752 54.85                              30    0.2710 7298 350 
 KBS  BZ  IAmb     752 55.62        55.7 0.84                          7298 350 
 ARE0 BZ EP        753 11.16                              29   -0.0810 7592 340 
 STEI EZ EP        753 35.06                              28    0.0410 8032 341 
 STEI EZ  IAmb     753 35.83        74.2 0.86                          8032 341 
 FLOS EZ EP        753 44.27                              27   -0.2110 8212 340 
 FLOS EZ  IAmb     753 56.92       179.2 1.80                          8212 340 
 STOK EZ EP        753 44.94                              27   -0.1310 8224 340 
 NSS  BZ EP        753 52.92                              26   -1.1810 8399 339 
 DOMB EZ EP        754  9.78                              25    0.7410 8697 338 
 MOL  HZ EP   9    754  0.24                              25   -9.32 0 8710 339 
 MOL  HZ  IAmb     754  1.11        27.9 0.84                          8710 339 
 NC602BZ EP        754  9.75                              25   -0.2310 8717 336 
 OSL  SZ EP        754 14.86                              25    0.2710 8812 336 
 FOO  HZ EP        754 17.49                              25   -0.1610 8877 339 
 KONO BZ Ep        754 17.91                                           8879 336 
 ODD1 SZ EP        754 21.79                              24   -0.2810 8967 338 
 ODD1 SZ  IAmb     754 24.34        37.0 1.49                          8967 338 
 RUND EZ EP        754 22.03                              24   -0.0810 8969 338 
 RUND EZ  IAmb     754 25.01        92.7 1.49                          8969 338 
 ASK  EZ EP        754 21.90                              24   -0.1610 8969 339 
 SNARTEZ EP        754 27.97                              24    0.6810 9079 336 
 SNARTEZ  IAmb     754 29.07        39.4 1.04                          9079 336 
 TRO  BZ EP        753 23.03                              28    0.6610 7796 341 
 TRO  BZ  IAmb     753 24.27        37.6 0.88                          7796 341 
                                                                                
