 2009  115 1749 39.1 D  46.857 155.154 36.0  PDE522     6.9bPDE 7.5sPDE 7.4WUCM1
 ACTION:SPL 14-12-11 12:04 OP:jh   STATUS:               ID:20090115174856     I
 2009-01-15-1748-56S.NNN___007                                                 6
 STAT SP IPHASW D HRMM SECON CODA AMPLIT PERI AZIMU VELO AIN AR TRES W  DIS CAZ7
                                                                                
