 1998  8 4 1859 18.2 D -0.551 -80.411  19.0  PDE        6.2bPDE                1
 1998 0804 1859 18.2 D -0.551 -80.411  19.0  PDE        6.2bPDE                1
 ACTION:SPL 14-12-11 12:04 OP:jh   STATUS:               ID:19980804190246     I
 1998-08-04-1902-46S.TEST__013                                                 6
 1998-08-04-1902-47S.TEST__011                                                 6
 STAT SP IPHASW D HRMM SECON CODA AMPLIT PERI AZIMU VELO AIN AR TRES W  DIS CAZ7
                                                                                
