 2005 11 6 2100 45.0 L  66.278  12.806  0.0  TES  6 0.6 1.6LTES 2.2CTES        1
 GAP=177        1.50       3.5    16.5  9.9 -0.6470E+01  0.1196E+03  0.4195E+01E
 ACTION:SPL 14-12-11 12:04 OP:jh   STATUS:               ID:20051106210044 L   I
 2005-11-06-2100-06S.STOK__003                                                 6
 2005-11-06-2100-17S.STOK2_003                                                 6
 2005-11-06-2100-19S.STOK1_003                                                 6
 2005-11-06-2101-00S.LOF___006                                                 6
 2005-11-06-2100-37S.NSS___003                                                 6
 2005-11-06-2059-57S.MOR___003                                                 6
 STAT SP IPHASW D HRMM SECON CODA AMPLIT PERI AZIMU VELO AIN AR TRES W  DIS CAZ7
 STOK SZ IP     D 21 0 46.41   50                         90   -0.4310 11.3  57 
 STOK SZ IS       21 0 47.94                              90   -0.2510 11.3  57 
 STOK SN  IAML    21 0 48.24       246.0 0.09                          11.3  57 
 STOK2SZ EP   9   21 0 47.75                              90   -1.45 0 25.9  75 
 STOK2SE ES       21 0 50.45                                   -0.3910 25.9  75 
 STOK2SE  IAML    21 0 50.80       171.4 0.12                          25.9  75 
 STOK1SZ EP       21 0 49.16                              90   -0.4310 28.3  29 
 STOK1SN ES       21 0 52.86                              90   -0.1210 28.3  29 
 STOK1SN  IAML    21 0 53.86        51.1 0.09                          28.3  29 
 MOR8 SZ EP       21 0 56.47  109                         90   -0.5810 74.5  98 
 MOR8 SN ES       21 1  6.93                              90    0.9810 74.5  98 
 NSS  BZ EP       21 1 14.58  134                         50   -0.5910  199 192 
 NSS  BZ ES       21 1 37.87                              50    0.4010  199 192 
 NSS  BZ  IAML    21 1 41.41         7.4 0.51                           199 192 
 LOF  SZ EP       21 1 16.43                              50   -0.0110  209   8 
 LOF  SZ ES       21 1 40.72                              50    1.0310  209   8 
 LOF  SZ  IAML    21 1 42.44         8.3 0.86                           209   8 
                                                                                
