 1995 1120 0401 59.1 L  60.052   5.402  1.5  TES 12 0.5 2.0LTES 2.3CTES 2.1LNAO1
 GAP=153        3.75      12.3    20.5 12.6  0.1959E+03  0.6601E+01  0.5711E+01E
 1995 1120 0401 59.4 L                       BER        2.1WBER                1
     116.1      35.5      30.6     0                                           F
 ACTION:SPL 14-12-11 12:04 OP:jh   STATUS:               ID:19951120040159     I
 1995-11-20-0400-54S.TEST__008                                                 6
 STAT SP IPHASW D HRMM SECON CODA AMPLIT PERI AZIMU VELO AIN AR TRES W  DIS CAZ7
 EGD  SZ IP     C  4 2  3.50   80                         93    0.1910 26.3 338 
 EGD  SZ IS        4 2  6.33                              93   -0.1210 26.3 338 
 BER  SZ IP     C  4 2  5.20   51                         92    0.1510 37.1 354 
 BER  SZ IS        4 2  9.66                              92    0.1710 37.1 354 
 BER  SZ  IAML     4 2 10.21       471.2  0.2                          37.1 354 
 ASK  SZ IP     C  4 2  6.85  143                         92   -0.1710 49.3 347 
 ASK  SZ ES        4 2 12.77                              92   -0.1410 49.3 347 
 ASK  SZ  IAML     4 2 13.26       147.1  0.2                          49.3 347 
 ODD1 SZ EP     D  4 2 11.10  106                         92    0.7110 70.2 102 
 ODD1 SZ EPN       4 2 12.93                                           70.2 102 
 ODD1 SZ I         4 2 12.96                                           70.2 102 
 ODD1 SZ ES        4 2 19.23                              92    0.4610 70.2 102 
 ODD1 SZ  IAML     4 2 19.65        48.7  0.1                          70.2 102 
 BLS5 SZ IP   9 C  4 1 36.22  126                         91   -37.7 0 91.8 139 
 BLS5 SZ ES        4 1 46.87                                   -0.3110 91.8 139 
 KMY  SZ EP   9 D  4 2 17.64  101                         91    3.41 0 94.0 185 
 KMY  SZ ES        4 2 29.00                                    0.1410 94.0 185 
 SUE  SZ IP     C  4 2 18.66  102                         91    0.6710  117 343 
 SUE  AZ E         4 2 18.84                                            117 343 
 SUE  SZ ES        4 2 32.23                              91    0.2410  117 343 
 SUE  SZ  IAML     4 2 33.32        31.0  0.1                           117 343 
 FOO  SZ EP     C  4 2 25.30  136                         50   -0.5810  173 354 
 FOO  SZ EPG    C  4 2 26.43                              90   -0.5910  173 354 
 FOO  SZ ES        4 2 46.75                              50    1.0210  173 354 
 MOL  SZ IP     D  4 2 41.97                              50   -0.0510  303  21 
 MOL  SZ I         4 2 45.74                                            303  21 
 MOL  SZ ES        4 3 13.62                              50   -0.1910  303  21 
 NRA0 SZ  Pn      0402 47.10                  255.2  9.5  50 -4-0.3610  347  75 
 NRA0 SZ  Pg      0402 53.07                  261.9  7.0  90  2-1.9310  347  75 
 NRA0 SZ  Lg      0403 33.77                  256.5  4.4   0 -3-1.6210  347  75 
 HFS  SZ  Pn      0403 01.11                  268.2  8.2  50 -3-0.5610  461  85 
 HFS  SZ  Lg      0404 07.84                  303.3  3.7   0 31 0.6710  461  85 
 FIA0 SZ  Pn      0404 25.32                              50    0.1710 1133  73 
 FIA0 SZ  Lg      0407 15.85                               0    1.9810 1133  73 
                                                                                
