 1996  7 5 0220 46.5 L  61.287   4.829  8.0  TES 10 0.4 2.0LTES 2.2CTES 1.9LNAO1
 1996  7 5 0220 46.5 L  61.287   4.829  8.0  TES 10 0.4 2.0LTES 2.2CTES 1.9LNAO1
 GAP=190        2.17       4.5    12.0  7.5 -0.2107E+02  0.1681E+02 -0.8830E+01E
 1996  7 5 0220 47.1 L                       BER        2.0WBER                1
 ACTION:SPL 14-12-11 12:04 OP:jh   STATUS:               ID:19960705022047     I
 1996-07-05-0219-49S.NNSN__011                                                 6
 STAT SP IPHASW D HRMM SECON CODA AMPLIT PERI AZIMU VELO AIN AR TRES W  DIS CAZ7
 MOL  SE ES        221 38.98                              50    0.7810  202  44 
 NRA0 SZ  Pn      0221 37.37                  286.3  7.2  50  4 0.5310  368  97 
 NRA0 SZ  Lg      0222 28.56                  281.5  4.1   0  0-0.1410  368  97 
 HFS  SZ  Pn      0221 53.82                  287.5  7.8  50  0 0.5410  500 101 
 HFS  SZ  Lg      0223 07.21                  281.3  3.7   0 -6 1.7510  500 101 
 ASK  SZ EP        221  0.57   87                                               
 ASK  SZ ES        221 12.66                                                    
 BER  SZ IP     C  221  2.24   75                         70   -0.9210  104 165 
 BER  SZ ES        221 15.28                              70   -0.2310  104 165 
 EGD  SZ IP     C  221  4.21   97                         70   -0.6010  115 169 
 EGD  SZ ES        221 18.57                              70    0.1810  115 169 
 FOO  SZ IP     C  220 51.64  101                        102   -0.8510 36.5  18 
 HYA  SZ IP     C  220 57.71  102                         96   -0.7910 74.2 100 
 HYA  SZ ES        221  6.64                              96   -0.7610 74.2 100 
 HYA  SZ  IAML     221  6.82        82.6 0.13                                   
 KMY  SZ IP     C  221 19.66                              50   -0.2910  232 174 
 KMY  SZ EP        221 19.66                              50   -0.2910  232 174 
 MOL  SZ EP        221 16.17                              50   -0.0310  202  44 
 MOL  SZ ES        221 39.28                                            202  44 
 MOL  AZ E         221 38.75                                            202  44 
 ODD1 SZ IP        221 13.65   79                         50   -0.1310  182 146 
 ODD1 SZ ESG       221 36.62                              93   -1.0210  182 146 
 ODD1 SZ  IAML     221 37.18        39.6 0.34                                   
 SUE  SZ EP     C  220 51.56   93                        107    0.7210 25.9 188 
 SUE  SZ ES        220 55.64                             107    1.5710 25.9 188 
 SUE  SZ  IAML     220 55.93       107.4 0.10                                   
 SUE  AZ I         220 51.59                                           25.9 188 
 SUE  AZ  IAML     220 55.92       105.3 0.05                                   
                                                                                
