 1996  713 0556 46.0 L  61.419   3.872 12.2  TES  9 0.5 1.5LTES 2.1CTES 1.6WBER1
 GAP=265        1.40       3.3    20.8 12.8 -0.3767E+02  0.2219E+03 -0.2241E+02E
 ACTION:SPL 14-12-11 12:04 OP:jh   STATUS:               ID:19960713055646     I
 1996-07-13-0555-53S.TEST__007                                                 6
 STAT SP IPHASW D HRMM SECON CODA AMPLIT PERI AZIMU VELO AIN AR TRES W  DIS CAZ7
 SUE  AN E         556 55.78                                           62.5 130 
 SUE  SZ EP     D  556 56.21  101                         94    0.0610 62.5 130 
 SUE  SZ ESG       557  3.44                              94   -0.2110 62.5 130 
 SUE  SZ  IAML     557  4.44        23.4  0.1                          62.5 130 
 FOO  SZ IP     C  556 56.39   78                         93   -0.2210 65.5  72 
 FOO  SZ ESG       557  4.68                              93    0.2310 65.5  72 
 FOO  SZ  IAML     557  6.65        34.7  0.1                          65.5  72 
 ASK  SZ EP        557  5.51   66                         70   -0.3510  127 145 
 ASK  SZ ESG       557 20.60                              92    0.0610  127 145 
 ASK  SZ  IAML     557 21.87        15.3  0.1                           127 145 
 HYA  SZ EP     D  557  5.56   78                         70   -0.4110  127 102 
 HYA  SZ ESG       557 20.92                              92    0.1910  127 102 
 HYA  SZ  IAML     557 21.12        25.7  0.3                           127 102 
 BER  SZ ESG       557 23.55                              92   -0.5310  140 145 
 BER  SZ  IAML     557 24.26        11.6  0.2                           140 145 
 EGD  SZ IP     D  557  8.76   70                         50    0.2310  148 149 
 EGD  SZ ESG       557 25.99                              91   -0.0810  148 149 
 EGD  SZ  IAML     557 27.72        17.9  0.8                           148 149 
 ODD1 SZ EP        557 17.89   83                         50   -0.4010  226 137 
 ODD1 SZ ESG       557 47.17                              91    0.4610  226 137 
 ODD1 SZ  IAML     557 47.42         5.9  0.2                           226 137 
 MOL  SZ EP        557 20.39   88                         50    1.4310  231  55 
 MOL  SZ ESG       557 47.46                              91   -0.7410  231  55 
 MOL  SZ  IAML     557 48.26         6.3  0.4                           231  55 
 BLS5 SZ EP        557 22.63                              50   -0.4210  264 146 
 BLS5 SZ ESG       557 57.56                              91    0.7310  264 146 
                                                                                
