 1996  718 0946 51.4 L  60.158   2.070 15.0  TES  9 1.1 1.8LTES 2.5CTES 2.1WBER1
 GAP=285        3.03       8.5    39.7 25.0  0.1249E+02  0.8546E+03  0.6258E+00E
 ACTION:SPL 14-12-11 12:04 OP:jh   STATUS:               ID:19960718094651     I
 1996-07-18-0946-21S.TEST__010                                                 6
 STAT SP IPHASW D HRMM SECON CODA AMPLIT PERI AZIMU VELO AIN AR TRES W  DIS CAZ7
 EGD  SZ EP        947 16.59  111                         50   -0.5310  175  85 
 EGD  SZ ESG       947 40.00                              90    1.2110  175  85 
 ASK  SZ EP     C  947 16.92   87                         50   -0.3310  176  77 
 ASK  SZ ESG       947 40.14                              90    1.0710  176  77 
 SUE  SZ EP     C  947 17.18  103                         50   -0.2910  178  55 
 SUE  SZ ESG       947 39.59                              90    0.0510  178  55 
 SUE  AZ E         947 40.91                                            178  55 
 SUE  SZ  IAML     947 41.09        15.5  0.2                           178  55 
 BER  SZ ESG       947 41.53                              90    0.9010  182  81 
 BER  SZ  IAML     947 42.77        16.5  0.1                           182  81 
 KMY  SZ EP        947 21.47   89                         50    0.3410  208 119 
 KMY  SZ ESG       947 47.53                              90    0.2410  208 119 
 KMY  SZ  IAML     947 48.73        25.0  0.1                           208 119 
 FOO  SZ EP        947 23.29   94                         50   -0.3210  228  44 
 FOO  SZ ESG       947 50.80                              90   -1.7710  228  44 
 FOO  SZ  IAML     947 51.04        16.1  0.2                           228  44 
 HYA  SZ EP     C  947 26.98  107                         50    0.4010  252  62 
 HYA  SN ESG       947 57.21                              90   -1.6610  252  62 
 BLS5 SZ EP     C  947 28.21  111                         50    0.5910  259 106 
 BLS5 SE ESG       947 58.91                              90   -2.1010  259 106 
 MOL  SZ EP        947 44.37  125                         50   -0.3410  397  45 
 MOL  SZ ES        948 26.72                              50    2.5510  397  45 
                                                                                
