 1996  718 2255  8.1 D  51.689 157.584 31.1  TES 18 0.5 5.1bTES         5.5bPDE1
 GAP=347        1.28      92.3   145.1  5.3 -0.5656E+04 -0.3375E+03  0.1699E+03E
 1996 0718 2255 03.4 D  51.494 159.442 33.0  PDE187     5.5bPDE                1
 ACTION:SPL 14-12-11 12:04 OP:jh   STATUS:               ID:19960718225506     I
 1996-07-18-2303-34S.TEST__015                                                 6
 STAT SP IPHASW D HRMM SECON CODA AMPLIT PERI AZIMU VELO AIN AR TRES W  DIS CAZ7
 KBS  SZ EP       23 3 43.4                               27   -0.0410 5338 352 
 KTK1 SZ EP       23 4 35.94                              25    0.2710 6112 342 
 KTK1 SZ  IAML    23 4 38.77       371.3  1.7                          6112 342 
 KTK1 SZ EpP      23 4 46.02                             155    0.0010 6112 342 
 TRO  SZ EP     C 23 4 37.75                              25    0.2210 6142 344 
 TRO  SZ  IAML    23 4 39.67       270.9  1.5                          6142 344 
 JNW  SZ EP       23 4 51.4                               24    0.4210 6352 355 
 JMI  LZ EP       23 4 51.43                              24   -0.3910 6365 355 
 LOF  SZ EP     C 23 4 53.99                              24    0.4610 6391 345 
 LOF  SZ  IAML    23 4 56.20       537.8  1.1                          6391 345 
 MOR8 SZ EP     C 23 5  3.74                              24   -1.1910 6572 344 
 MOR8 SZ  IAML    23 5  5.29       229.1  0.8                          6572 344 
 NSS  SZ EP     C 23 5 17.88                              23   -0.2410 6786 344 
 MOL  SZ EP       23 5 34.94                              23   -0.3610 7071 345 
 MOL  SZ  IAML    23 5 36.17        75.3  0.7                          7071 345 
 FOO  SZ EP       23 5 44.20                              22    0.3210 7217 346 
 FOO  SZ  IAML    23 5 45.51        57.6  1.4                          7217 346 
 HYA  SZ EP     C 23 5 45.43                              22    0.0310 7243 345 
 HYA  SZ  IAML    23 5 47.62        87.2  0.8                          7243 345 
 SUE  SZ EP       23 5 48.39                              22    0.8910 7279 346 
 SUE  SZ  IAML    23 5 50.27       107.2  0.9                          7279 346 
 ASK  SZ EP       23 5 50.05                              22   -0.5610 7332 345 
 ASK  SZ  IAML    23 5 52.08       176.4  1.0                          7332 345 
 KONO BZ EP       23 5 51.41                              22    0.4910 7336 343 
 KONO BZ E        23 5 55.02        45.5  1.5                          7336 343 
 BER  SZ  IAML    23 5 53.32       163.0  1.1                          7340 345 
 EGD  SZ EP       23 5 51.25                              22   -0.6210 7354 345 
 EGD  SZ  IAML    23 5 52.82       161.2  1.3                          7354 345 
 ODD1 SZ IP     C 23 5 52.89                              22    0.1710 7367 345 
 ODD1 SZ  IAML    23 5 55.20        95.8  1.1                          7367 345 
 BLS5 SZ EP       23 5 55.92                              22    0.0710 7421 344 
 BLS5 SZ  IAML    23 5 58.53        43.1  0.7                          7421 344 
                                                                                
