 1996  726 0742 12.0 L  61.756   2.316 20.8  TES  9 0.4 1.8LTES 2.4CTES 2.0WBER1
 GAP=280        1.10      13.1    59.8 45.6 -0.6964E+03 -0.2656E+04  0.5504E+03E
 ACTION:SPL 14-12-11 12:04 OP:jh   STATUS:               ID:19960726074211     I
 1996-07-26-0740-58S.TEST__010                                                 6
 STAT SP IPHASW D HRMM SECON CODA AMPLIT PERI AZIMU VELO AIN AR TRES W  DIS CAZ7
 FOO  SZ EP        742 33.45   88                         55   -0.1110  146  96 
 FOO  SZ ES        742 49.12                              55   -0.3610  146  96 
 FOO  SZ  IAML     742 49.62        17.2  0.1                           146  96 
 SUE  SZ EP     D  742 34.04   87                         55   -0.3310  152 120 
 SUE  AN E         742 39.99                                            152 120 
 SUE  SZ ES        742 50.45                              55   -0.4510  152 120 
 SUE  SZ  IAML     742 50.80        30.5  0.1                           152 120 
 ASK  SZ EP        742 41.56   91                         55   -0.0410  210 131 
 ASK  SZ ES        743  2.84                              55   -0.6410  210 131 
 HYA  SZ EP     C  742 42.44   94                         55    0.0510  217 106 
 HYA  SZ ES        743  5.83                              55    0.9810  217 106 
 EGD  SZ EP        742 43.55   87                         55   -0.3010  228 135 
 EGD  SZ ES        743  7.32                              55   -0.0610  228 135 
 MOL  SZ EP        742 51.12  143                         55   -0.0610  287  69 
 ODD1 SZ EP        742 54.68  110                         55    0.4110  312 129 
 ODD1 SZ ES        743 25.98                              55    0.4610  312 129 
 ODD1 SZ  IAML     743 27.41        11.3  0.2                           312 129 
 KMY  SZ EP     C  742 56.36                              55    0.3710  326 149 
 BLS5 SZ ES        743 32.74                              55    0.0610  345 137 
 BLS5 SZ  IAML     743 33.76         6.0  0.1                           345 137 
                                                                                
