 1997 10 6 2345 39.6 L  73.484   7.779 15.0F TES 20 1.3 3.2LTES 3.5CTES 3.0LNAO1
 GAP=117        3.57      10.5    31.9  0.0  0.6506E+02  0.0000E+00  0.0000E+00E
 ACTION:SPL 14-12-11 12:04 OP:jh   STATUS:               ID:19971006234539 L   I
 1997-10-06-2345-46S.NSN___014                                                 6
 9710-06-2346-04S.NSN_039                                                      3
 1997 1006 2345 37.9 L  73.470   8.079       NAO  7 1.0         4.5bNAO 3.0LNAO1
     640  GREENLAND SEA                                                        3
 9710-06-2350-48S.NSN_015                                                      3
 9710-06-2329-58S.BJO_03                                                       3
 9710-06-2346-39S.JMI_07                                                       3
 Rmsdep indicate depth 14-24km. Depth fixed at 15km                            3
 STAT SP IPHASW D HRMM SECON CODA AMPLIT PERI AZIMU VELO AIN AR TRES W  DIS CAZ7
 BJO1 BZ EP   3   2346 22.90                              55   -5.77 2  363  66 
 SPA0 SZ  Pn      2346 55.00                  190.0  7.9  55-17 0.2410  573  20 
 TRO  SZ EP       2346 55.38  126                         53    0.1410  581 132 
 TRO  SZ ES       2347 50.60                              53   -0.6010  581 132 
 TRO  SZ E        2347 57.87        73.8  1.0                           581 132 
 TRO  SZ ET   3   2351 30.61                               0   -40.6 0  581 132 
 JNE  SZ EP       2346 57.59                              53   -1.3710  612 251 
 JNW  SZ EP       2346 57.95                              53   -1.1910  613 251 
 KBS  BZ EP       2347  0.46                              53    0.8310  617   8 
 KBS  BZ E        2347  7.30        87.5  1.1                           617   8 
 JMI  SZ EP       2347  0.22                              53   -0.8010  629 251 
 LOF  SZ EP       2346 59.86  125                         53   -1.6710  633 158 
 LOF  SZ ES   3   2347 55.05                              53   -7.08 2  633 158 
 LOF  SZ E        2348  2.92        60.9 0.80                           633 158 
 LOF  SZ ET   3   2351 59.14                               0   -46.9 0  633 158 
 KTK1 SZ EP       2347 16.03  218                         51    1.4010  742 124 
 KTK1 SZ E        2348 35.89        20.4  0.9                           742 124 
 KTK1 SZ ET   3   2352  0.39                               0   -99.9 0  742 124 
 ARA0 SZ  Pn      2347 17.34                        10.6  55   -0.9610  762 116 
 ARA0 SZ  Sn      2348 32.05                         5.6  55    0.7310  762 116 
 MOR8 SZ EP       2347 27.06  200                         51   -0.7010  854 159 
 MOR8 SZ ES   3   2348 38.70                              51   -9.09 2  854 159 
 MOR8 SZ E        2348 57.01        28.5  0.9                           854 159 
 MOR8 SZ ET   3   2352 34.60                               0   -99.9 0  854 159 
 NSS  SZ EP       2347 47.52  167                         51    1.1810 1012 169 
 NSS  SZ ES   3   2349 24.14                              51    4.04 2 1012 169 
 NSS  SZ E        2349 31.23        37.4  0.7                          1012 169 
 TRON SZ EP       2348  1.90                              51    2.4510 1124 173 
 APA0 SZ  Pn      2348 02.54                        10.9  55   -1.4510 1130 113 
 APA0 SZ  Sn      2349 51.11                              55    0.2910 1130 113 
 MOL  SZ EP       2348 11.31                              51    0.85 9 1217 181 
 HYA  SZ EP       2348 32.60                              51    3.56 7 1375 184 
 SUE  SZ EP       2348 34.22                              51    3.28 7 1391 187 
 NRA0 SZ  Pn      2348 39.20                  352.0  8.3  55 -2-2.05 7 1430 172 
 NRA0 SZ  Sn      2350 54.78                  351.2  5.0  55 -3-0.87 7 1430 172 
 HFS  SZ  P       2348 47.73                  340.5  7.7  51-11 2.88 6 1509 167 
 HFS  SZ  Sn      2351 13.10                              55    0.35 6 1509 167 
 FIA0 SZ  Pn      2348 51.55                         9.7  55   -3.24 6 1539 141 
 FIA0 SZ  Sn      2351 17.93                              55   -1.29 6 1539 141 
 GEC2 SZ  P   4   2351 01.06                        12.5  51   -10.9 0 2759 171 
                                                                                
