 2007  3 8 0503 33.3 D  29.745 139.048135.4  BER 22 0.7 5.2sBER 5.9bBER 5.9bPDE1
 GAP=346        2.59      39.0   131.0 10.8  0.3820E+04  0.1299E+03 -0.1317E+03E
 rund seems to have timingerror although no timingerror in log, alk            3
 2007  3 8  5 3 32.3 D  29.908 140.204139.6  PDE510     5.9bPDE 6.1WGCM 6.0WGS 1
 ACTION:SPL 14-12-11 12:04 OP:jh   STATUS:               ID:20070308050333 L   I
 2007-03-08-0515-24S.NNSN__014                                                 6
 2007  3 8 0503 18.4 D  30.050 141.683 33.0F*NAO  1                     6.4bNAO1
     211  SOUTHEAST OF HONSHU, JAPAN                                           3
 STAT SP IPHASW D HRMM SECON CODA AMPLIT PERI AZIMU VELO AIN AR TRES W  DIS CAZ7
 KBS  BZ EP        514 13.96                              27   -0.1910 7508 350 
 KBS  BZ  IAmb     514 16.91       245.6 0.54                          7508 350 
 KBS  BZ ES        523  0.16                              29    0.4410 7508 350 
 BJO1 BN E         520 27.59                                           7675 346 
 BJO1 BZ  IAMs_20  543 32.23      1161.2 21.3                          7675 346 
 TRO  BZ IP     D  514 40.48                              26   -1.1610 8005 341 
 TRO  BZ  IAmb     514 43.29       328.1 1.66                          8005 341 
 TRO  BE ES        523 51.99                              28   -0.1310 8005 341 
 TRO  BE ESS       528 33.60                              38    0.4010 8005 341 
 TRO  BZ  IAMs_20  547 58.61       998.4 20.3                          8005 341 
 LOF  SZ EP        514 57.55                              25    1.44 9 8279 342 
 LOF  SZ  IAmb     515  1.00       114.5 1.20                          8279 342 
 MOR8 SZ IP     D  515  1.13                              25   -0.2910 8380 340 
 MOR8 SZ  IAmb     515  3.76       658.0 0.81                          8380 340 
 MOR8 SZ EPP       517 50.68                              38   -1.31 9 8380 340 
 STOK EZ EP        515  3.75                              24   -0.3110 8433 340 
 STOK EZ  IAmb     515  7.99       376.4 1.49                          8433 340 
 NSS  BZ EP        515 11.66                              24   -1.29 9 8608 339 
 NSS  BZ  IAmb     515 14.77       359.3 0.00                          8608 339 
 NSS  BE ES        524 51.10                              26   -1.30 9 8608 339 
 NSS  BZ  IAMs_20  551 17.76      1451.2 19.4                          8608 339 
 DOMB SZ EP        515 27.92                              23    0.2410 8905 338 
 DOMB SZ  IAmb     515 30.48       396.0 1.03                          8905 338 
 DOMB SZ EpP       516  2.11                             157    0.2210 8905 338 
 NB2  SZ  E       0515 28.00                    41. 20.0  23 -2        8912 337 
 NB2  SZ  P       0515 28.00                   41.9 20.8  23 -1-0.0410 8912 337 
 OSL  SZ EP        515 33.20                              23    0.1110 9019 336 
 OSL  SZ  IAmb     515 35.50       427.0 1.16                          9019 336 
 HYA  SZ EP        515 37.00                              22    0.8810 9084 339 
 HYA  SZ  IAmb     515 39.52       454.2 0.98                          9084 339 
 KONO BZ EP        515 37.36                              22    1.0910 9086 337 
 KONO BE ES        525 38.51                              25    0.7510 9086 337 
 FOO  SZ EP        515 35.50                              22   -0.6910 9086 340 
 FOO  SZ  IAmb     515 37.76       191.5 1.00                          9086 340 
 ODD1 SZ IP     D  515 39.68                              22   -0.8310 9175 338 
 ODD1 SZ  IAmb     515 42.31       352.4 1.23                          9175 338 
 RUND SZ IP   9 D  515 42.92                              22    2.35 0 9177 339 
 RUND SZ  IAmb     515 45.57       401.0 1.11                          9177 339 
 ASK  EZ EP        515 40.82                              22    0.3010 9178 339 
 ASK  EZ  IAmb     515 43.61       472.9 1.36                          9178 339 
 BER  EZ EP        515 40.49                              22   -0.1610 9181 339 
 BER  HZ EP        515 40.92                              22           9181 339 
 BER  EZ  IAmb     515 44.08       317.1 1.19                          9181 339 
 BER  HE ES        525 46.61                              24    0.2710 9181 339 
 EGD  EZ EP        515 41.63                              22    0.3410 9194 339 
 EGD  EZ  IAmb     515 44.27       290.2 1.45                          9194 339 
 BLS5 SZ IP     D  515 44.08                              22    1.36 9 9223 338 
 BLS5 SZ  IAmb     515 48.24       192.1 1.32                          9223 338 
 KMY  SZ IP     D  515 45.54                              22   -0.0110 9286 338 
 KMY  SZ  IAmb     515 48.31       216.9 1.42                          9286 338 
 SNARTEZ IP     D  515 45.52                              22   -0.0910 9287 337 
 SNARTEZ  IAmb     515 49.75       434.0 1.40                          9287 337 
 STAV SZ EP        515 45.72                              22   -0.1210 9292 338 
 STAV SZ  IAmb     515 48.66       321.4 1.21                          9292 338 
                                                                                
