 2003  326 0422  7.8 D   9.220  95.718 33.0F TES 23 0.7 5.5sTES 5.5bTES 5.8bPDE1
 GAP=340        1.87      40.4   127.1  0.0 -0.2049E+04  0.0000E+00  0.0000E+00E
 2003  326  422 30.1 D  12.518  92.564 33.0  PDE488     5.8bPDE 5.3sPDE 5.9WGS 1
 ACTION:SPL 14-12-11 12:04 OP:jh   STATUS:               ID:20030326042208 L   I
 2003-03-26-0340-05S.NSN___021                                                 6
 03/03/26 04:22:31  12.72N  92.59E  33.0 5.7M  A  ANDAMAN ISLANDS, INDIA REGION3
 2003  326 0422 22.0 D  11.779  94.647 33.0F*NAO  1                     5.7bNAO1
     703  ANDAMAN ISLANDS, INDIA, REGION                                       3
 STAT SP IPHASW D HRMM SECON CODA AMPLIT PERI AZIMU VELO AIN AR TRES W  DIS CAZ7
 KTK1 SZ EP        433 46.60                              20   -0.6110 8370 339 
 KTK1 SZ I         433 57.56                                           8370 339 
 KTK1 SZ  IAmb     434  1.70       204.9 1.28                          8370 339 
 TRO  SZ EP        433 56.0                               19   -0.4010 8550 340 
 MOR8 SZ EP        434  2.60                              19   -1.0410 8693 336 
 MOR8 SZ  IAmb     434 17.86       173.4 1.24                          8693 336 
 LOF  SZ EP        434  8.05                              19    1.77 9 8747 338 
 LOF  SZ  IAmb     434  9.07       229.8 1.64                          8747 338 
 NSS  BZ EP        434  7.52                              19   -1.3210 8799 334 
 NSS  BZ  IAMs_20  513 42.48      2749.0 19.3                          8799 334 
 NB2  SZ  P       0434 08.90                   89.9 19.6  19  0-1.61 9 8831 330 
 OSL  SZ EP        434 11.15                              19   -0.5810 8858 329 
 OSL  SZ  IAmb     434 12.88        40.7 1.24                          8858 329 
 TRON SZ EP        434 12.91                              18    0.4910 8872 333 
 TRON SZ  IAmb     434 14.80       122.6 1.36                          8872 333 
 KBS  BZ EP        434 12.84                              18   -0.1410 8884 349 
 KBS  BZ  IAmb     434 16.10        79.5 1.50                          8884 349 
 KBS  LZ ES        444 14.53                              21    0.2410 8884 349 
 KBS  LZ  AMPS     514 45.82      1645.5 20.0                          8884 349 
 KONO BZ EP        434 13.28                              18   -1.58 9 8922 329 
 KONO BZ  IAmb     434 28.86       144.9 1.30                          8922 329 
 KONO LZ  AMPS     513  1.27      2754.5 18.0                          8922 329 
 DOMB SZ EP        434 15.85                              18   -0.1710 8944 331 
 DOMB SZ I         434 26.80                                           8944 331 
 DOMB SZ  IAmb     434 30.26       129.5 1.30                          8944 331 
 MOL  SZ EP        434 19.67                              18    0.0510 9021 332 
 MOL  SZ  IAmb     434 21.07       100.4 1.36                          9021 332 
 MOL  SZ I         434 31.34                                           9021 332 
 BLS5 SZ EP        434 24.26                              18    0.7710 9101 329 
 BLS5 SZ  IAmb     434 25.56        67.1 0.68                          9101 329 
 BLS5 SZ I         434 35.71                                           9101 329 
 HYA  SZ EP        434 24.78                              18    1.3310 9102 331 
 HYA  SZ  IAmb     434 53.25       110.9 1.64                          9102 331 
 STAV SZ EP        434 25.70                              18    0.0610 9148 328 
 STAV SZ  IAmb     434 43.74        52.1 1.38                          9148 328 
 RUND SZ EP        434 26.39                              18    0.4410 9153 330 
 RUND SZ  IAmb     434 44.39       105.3 1.60                          9153 330 
 BER  SZ EP        434 26.08                              18    0.1110 9155 330 
 BER  SZ  IAmb     434 27.69        98.5 1.32                          9155 330 
 FOO  SZ EP        434 26.01                              18   -0.1410 9159 331 
 FOO  SZ  IAmb     434 27.70        94.0 1.84                          9159 331 
 EGD  SZ I         434 38.15                                           9162 330 
 ASK  SZ EP        434 26.75                              18    0.4610 9162 330 
 ASK  SZ  IAmb     434 40.64       192.6 1.68                          9162 330 
 EGD  SZ EP        434 26.99                              18    0.6910 9162 330 
 EGD  SZ  IAmb     434 28.39       100.5 1.60                          9162 330 
 KMY  SZ EP        434 27.13                              18    0.3910 9172 329 
 KMY  SZ  IAmb     434 42.18       112.7 1.12                          9172 329 
 SUE  SZ EP        434 27.78                              18    0.6610 9180 331 
 SUE  SZ  IAmb     434 49.49        94.9 1.72                          9180 331 
 JMI  BZ  IAMs_20  513 26.00      1886.9 21.5                          9575 341 
                                                                                
