 2006  222 2219 11.9 D -20.915  32.108  6.5  TES 23 1.1 7.1sTES 6.4bTES 6.5bPDE1
 GAP=350        3.52      42.6   234.2 22.2  0.3481E+04  0.3358E+03 -0.5617E+03E
 2006  222 2219  7.8 D -21.324  33.583 11.0  PDE412     6.5bPDE 7.5sPDE 7.0WGS 1
 ACTION:SPL 14-12-11 12:04 OP:jh   STATUS:               ID:20060222221911     I
 2006-02-22-2219-59S.NSN___003_SEI                                             6
 2006-02-22-2231-07S.WNN___003                                                 3
 2006-02-22-2230-13S.KMY___003                                                 3
 2006-02-22-2231-14S.MOL___003                                                 3
 2006-02-22-2231-09S.RND___001                                                 3
 2006-02-22-2231-01S.BLS___003                                                 3
 2006-02-22-2230-59S.OSL___001                                                 3
 2006-02-22-2231-06S.MOR___003                                                 3
 2006-02-22-2231-10S.DOM___001                                                 3
 2006-02-22-2231-00S.STA___003                                                 3
 2006-02-22-2230-59S.FOO___003                                                 3
 2006-02-22-2230-59S.HYA___003                                                 3
 2006-02-22-2230-59S.LOF___006                                                 3
 2006-02-22-2230-59S.ODD___003                                                 3
 2006-02-22-2230-59S.SUE___006                                                 3
 2006-02-22-2230-59S.KTK___003                                                 3
 2006-02-22-2219-59S.NSN___021                                                 3
 2006  222 2219  8.0 D -21.210  33.340 10.0 *PDE  1                     7.5 PDE1
 2006  222 2219  8.0 D -21.210  33.340 10.0 *PDE  1                     7.5 PDE1
 06/02/22 22:19:08  21.21S  33.34E  10.0 7.5M  B  MOZAMBIQUE                   3
 2006  222 2219 10.2 D -21.000  33.000 10.0F*NAO  1                     6.2bNAO1
 2006  222 2219 10.2 D -21.000  33.000 10.0F*NAO  1                     6.2bNAO1
     581  MOZAMBIQUE                                                           3
 STAT SP IPHASW D HRMM SECON CODA AMPLIT PERI AZIMU VELO AIN AR TRES W  DIS CAZ7
 KONO BZ EP       2231 33.93                              16   -0.5910 9165 349 
 OSL  SZ EP       2231 33.44                              16   -1.4210 9172 349 
 OSL  SZ  IAmb    2231 43.53       451.3 1.55                          9172 349 
 STAV SZ EP       2231 35.44                              16    0.3110 9178 347 
 STAV SZ  IAmb    2231 42.80       350.5 1.28                          9178 347 
 BLS5 SZ EP       2231 36.94                              16    0.2510 9210 347 
 BLS5 SZ  IAmb    2231 45.84       317.0 1.46                          9210 347 
 KMY  SZ EP       2231 36.73                              16   -0.2310 9217 346 
 KMY  SZ  IAmb    2231 43.83       452.8 1.28                          9217 346 
 ODD1 SZ EP       2231 37.83                              16   -1.0110 9256 347 
 ODD1 SZ  IAmb    2231 45.92       547.5 1.17                          9256 347 
 NB2  SZ  P       2231 37.00                  159.6 21.7  16  0-2.9110 9279 350 
 EGD  SZ EP       2231 41.02                              15   -0.8910 9325 347 
 BER  BZ EP       2231 42.22                              15   -0.0910 9334 347 
 BER  SZ EP       2231 42.32                              15           9334 347 
 BER  BZ  IAmb    2231 58.56       537.7 1.19                          9334 347 
 BER  BN ES       2242  6.82                              11    1.7510 9334 347 
 BER  BZ  IAMs_20 2317  0.61     76448.6 17.4                          9334 347 
 RUND SZ EP       2231 43.61                              15    1.1210 9336 347 
 RUND SZ  IAmb    2231 50.47      1259.2 1.29                          9336 347 
 ASK  SZ EP       2231 43.53                              15    0.6110 9347 347 
 ASK  SZ  IAmb    2231 51.03       696.4 1.70                          9347 347 
 HYA  SZ EP       2231 46.04                              15    1.0010 9394 348 
 HYA  SZ  IAmb    2231 54.61       782.8 1.40                          9394 348 
 SUE  SZ EP       2231 47.67                              15    1.6710 9415 347 
 DOMB SZ EP       2231 46.15                              15   -0.3710 9424 349 
 FOO  SZ EP       2231 47.84                              15   -0.3310 9463 347 
 FOO  SZ  IAmb    2231 55.61       231.0 1.51                          9463 347 
 MOL  SZ EP       2231 49.76                              15   -0.4510 9508 349 
 MOL  SZ  IAmb    2231 57.58       454.2 1.77                          9508 349 
 NSS  BZ EP       2231 54.50                              15   -1.2810 9634 351 
 NSS  BZ EPP      2235 16.66                              25   -0.8410 9634 351 
 NSS  BN ESKSac   2242 19.96                              11   -2.4210 9634 351 
 NSS  BE ESS      2248 16.23                              26    0.9210 9634 351 
 NSS  BZ  IAMs_20 2320 56.19     79459.1 22.6                          9634 351 
 MOR8 SZ EP       2232  0.72                              14   -1.1510 9774 353 
 MOR8 SZ  IAmb    2232  7.85       210.6 1.56                          9774 353 
 KTK1 SZ EP       2232 12.29                              14    0.801010003 357 
 KTK1 SZ  IAmb    2232 19.24       312.6 1.86                         10003 357 
 TRO  BZ EP       2232 15.09                              14   -0.461010102 355 
 TRO  BZ  IAMs_20 2320  5.42     68857.3 21.6                         10102 355 
 BJO1 BZ EP       2232 38.60                              14    1.181010634 356 
 BJO1 BE ESS      2250 24.57                              25   -0.241010634 356 
 BJO1 BZ  IAMs_20 2318 58.22     61794.4 16.8                         10634 356 
 JMIC BZ EP       2232 40.78                              14    1.831010671 348 
 JMIC BZ  IAMs_20 2322  5.05     56969.3 21.1                         10671 348 
 KBS  BZ EP       2233  2.11                              13    3.221011159 356 
 KBS  BZ  IAMs_20 2328  4.75     36904.0 20.7                         11159 356 
                                                                                
