 1994  616 1841 28.3 D -15.250 -70.294199.5  PDE401     5.6bPDE 5.8bBRK 6.0WGS 1
 1994  616 1841 28.3 D -15.250 -70.294199.5  PDE401     5.6bPDE 5.8bBRK 6.0WGS 1
 ACTION:SPL 14-12-11 12:04 OP:jh   STATUS:               ID:19940616184157     I
 1994-06-16-1841-57S.TEST__019                                                 6
 STAT SP IPHASW D HRMM SECON CODA AMPLIT PERI AZIMU VELO AIN AR TRES W  DIS CAZ7
                                                                                
