 2005  731 1544 49.7 L  66.346  13.165  2.8  TES  6 0.4 1.5LTES                1
 GAP= 96        2.00       1.5     5.9  9.3 -0.1702E+01 -0.2436E+01  0.1078E+00E
 ACTION:SPL 14-12-11 12:04 OP:jh   STATUS:               ID:20050731154449 L   I
 2005-07-31-1545-08S.LOF___006                                                 6
 2005-07-31-1545-09S.NSS___003                                                 6
 2005-07-31-1544-00S.MOR___003                                                 6
 2005-07-31-1544-10S.STOK__003                                                 6
 2005-07-31-1544-20S.STOK2_003                                                 6
 2005  731 1544 21.0 L                                                         1
 2005-07-31-1544-21S.STOK1_003                                                 6
 STAT SP IPHASW D HRMM SECON CODA AMPLIT PERI AZIMU VELO AIN AR TRES W  DIS CAZ7
 STOK SZ IP     C 1544 50.57                             113   -0.3010 6.78 257 
 STOK SZ ES       1544 52.18                             113    0.4310 6.78 257 
 STOK SZ  IAML    1544 52.35       110.3 0.06                          6.78 257 
 STOK2SZ EP       1544 50.82                             108   -0.3910 9.00  97 
 STOK2SZ E        1544 50.85                  273.9 15.5     -2        9.00  97 
 STOK2SE ES       1544 52.55                             108    0.2110 9.00  97 
 STOK2SE  IAML    1544 52.62       319.7 0.10                          9.00  97 
 STOK1SZ EP       1544 51.56                             100   -0.9310 17.2 353 
 STOK1SZ E        1544 51.61                  169.6  9.3     -3        17.2 353 
 STOK1SN ES       1544 53.84                             100   -0.7310 17.2 353 
 STOK1SN  IAML    1544 53.96       165.0 0.18                          17.2 353 
 MOR8 SZ EP       1544 59.83                              93    0.3610 60.6 108 
 MOR8 SN ES       1545  8.14                              93    1.4310 60.6 108 
 MOR8 SZ  IAML    1545  9.59        30.8 0.22                          60.6 108 
 LOF  SZ EP       1545 18.66                              50   -0.9910  200   4 
 NSS  BZ EP       1545 21.85                              50    0.9210  210 196 
                                                                                
